<?xml version="1.0"?>
<gpx xmlns="http://www.topografix.com/GPX/1/1" xmlns:xsi="http://www.w3.org/2001/XMLSchema-instance" version="1.1" creator="AllTrails.com" xsi:schemaLocation="http://www.topografix.com/GPX/1/1 http://www.topografix.com/GPX/1/1/gpx.xsd">
  <metadata>
    <name><![CDATA[PF#103 Buckhorn Gap]]></name>
    <desc><![CDATA[]]></desc>
    <link href="http://www.alltrails.com">
      <text>AllTrails, LLC</text>
    </link>
    <bounds minlat="35.31609" minlon="-82.75898" maxlat="35.35161" maxlon="-82.74199"/>
  </metadata>
  <trk>
    <name><![CDATA[PF#103 Buckhorn Gap]]></name>
    <src>AllTrails</src>
    <trkseg>
      <trkpt lat="35.31609" lon="-82.75226">
        <ele>792.05</ele>
      </trkpt>
      <trkpt lat="35.31609" lon="-82.75226">
        <ele>792.05</ele>
      </trkpt>
      <trkpt lat="35.31611" lon="-82.75228">
        <ele>792.01</ele>
      </trkpt>
      <trkpt lat="35.31628" lon="-82.75211">
        <ele>789.15</ele>
      </trkpt>
      <trkpt lat="35.31641" lon="-82.75203">
        <ele>788.02</ele>
      </trkpt>
      <trkpt lat="35.31656" lon="-82.75198">
        <ele>788.09</ele>
      </trkpt>
      <trkpt lat="35.31667" lon="-82.75201">
        <ele>789.31</ele>
      </trkpt>
      <trkpt lat="35.31671" lon="-82.75209">
        <ele>788.02</ele>
      </trkpt>
      <trkpt lat="35.31671" lon="-82.75219">
        <ele>786.29</ele>
      </trkpt>
      <trkpt lat="35.31664" lon="-82.75233">
        <ele>784.08</ele>
      </trkpt>
      <trkpt lat="35.31663" lon="-82.75238">
        <ele>782.68</ele>
      </trkpt>
      <trkpt lat="35.31667" lon="-82.75246">
        <ele>781.48</ele>
      </trkpt>
      <trkpt lat="35.31708" lon="-82.75266">
        <ele>778.57</ele>
      </trkpt>
      <trkpt lat="35.31712" lon="-82.7527">
        <ele>779.3</ele>
      </trkpt>
      <trkpt lat="35.31715" lon="-82.75282">
        <ele>778.66</ele>
      </trkpt>
      <trkpt lat="35.31711" lon="-82.75297">
        <ele>778.5</ele>
      </trkpt>
      <trkpt lat="35.31697" lon="-82.75331">
        <ele>777.58</ele>
      </trkpt>
      <trkpt lat="35.31683" lon="-82.75354">
        <ele>775.9</ele>
      </trkpt>
      <trkpt lat="35.31681" lon="-82.75361">
        <ele>773.5</ele>
      </trkpt>
      <trkpt lat="35.31683" lon="-82.75369">
        <ele>774.29</ele>
      </trkpt>
      <trkpt lat="35.31692" lon="-82.75374">
        <ele>775.57</ele>
      </trkpt>
      <trkpt lat="35.31702" lon="-82.75376">
        <ele>776.43</ele>
      </trkpt>
      <trkpt lat="35.31709" lon="-82.75379">
        <ele>776.62</ele>
      </trkpt>
      <trkpt lat="35.31716" lon="-82.75386">
        <ele>777.18</ele>
      </trkpt>
      <trkpt lat="35.31732" lon="-82.75416">
        <ele>773.72</ele>
      </trkpt>
      <trkpt lat="35.31746" lon="-82.75428">
        <ele>777.28</ele>
      </trkpt>
      <trkpt lat="35.31749" lon="-82.75435">
        <ele>777.41</ele>
      </trkpt>
      <trkpt lat="35.31759" lon="-82.75482">
        <ele>774.22</ele>
      </trkpt>
      <trkpt lat="35.31762" lon="-82.75489">
        <ele>774.81</ele>
      </trkpt>
      <trkpt lat="35.3177" lon="-82.75489">
        <ele>775.61</ele>
      </trkpt>
      <trkpt lat="35.31774" lon="-82.75481">
        <ele>776.91</ele>
      </trkpt>
      <trkpt lat="35.31779" lon="-82.7546">
        <ele>776.03</ele>
      </trkpt>
      <trkpt lat="35.31785" lon="-82.75452">
        <ele>776.23</ele>
      </trkpt>
      <trkpt lat="35.31804" lon="-82.75436">
        <ele>775.01</ele>
      </trkpt>
      <trkpt lat="35.31808" lon="-82.75429">
        <ele>776.9</ele>
      </trkpt>
      <trkpt lat="35.31808" lon="-82.75421">
        <ele>778.92</ele>
      </trkpt>
      <trkpt lat="35.318" lon="-82.75401">
        <ele>778.69</ele>
      </trkpt>
      <trkpt lat="35.31797" lon="-82.7539">
        <ele>778.26</ele>
      </trkpt>
      <trkpt lat="35.318" lon="-82.75344">
        <ele>777.86</ele>
      </trkpt>
      <trkpt lat="35.31803" lon="-82.7533">
        <ele>776.26</ele>
      </trkpt>
      <trkpt lat="35.3181" lon="-82.75323">
        <ele>776.3</ele>
      </trkpt>
      <trkpt lat="35.31824" lon="-82.75314">
        <ele>776.73</ele>
      </trkpt>
      <trkpt lat="35.31838" lon="-82.75311">
        <ele>775.56</ele>
      </trkpt>
      <trkpt lat="35.31918" lon="-82.75322">
        <ele>775.59</ele>
      </trkpt>
      <trkpt lat="35.31938" lon="-82.75332">
        <ele>775.38</ele>
      </trkpt>
      <trkpt lat="35.31948" lon="-82.75334">
        <ele>776.29</ele>
      </trkpt>
      <trkpt lat="35.31962" lon="-82.75333">
        <ele>774.92</ele>
      </trkpt>
      <trkpt lat="35.31974" lon="-82.75336">
        <ele>775.06</ele>
      </trkpt>
      <trkpt lat="35.31989" lon="-82.75342">
        <ele>775.87</ele>
      </trkpt>
      <trkpt lat="35.32015" lon="-82.75344">
        <ele>773.99</ele>
      </trkpt>
      <trkpt lat="35.32029" lon="-82.75352">
        <ele>775.65</ele>
      </trkpt>
      <trkpt lat="35.32042" lon="-82.7538">
        <ele>779.4</ele>
      </trkpt>
      <trkpt lat="35.32047" lon="-82.75398">
        <ele>779.68</ele>
      </trkpt>
      <trkpt lat="35.32047" lon="-82.75411">
        <ele>779.26</ele>
      </trkpt>
      <trkpt lat="35.32039" lon="-82.7546">
        <ele>778.4</ele>
      </trkpt>
      <trkpt lat="35.32039" lon="-82.75494">
        <ele>778.3</ele>
      </trkpt>
      <trkpt lat="35.32039" lon="-82.75494">
        <ele>778.3</ele>
      </trkpt>
      <trkpt lat="35.3204" lon="-82.75503">
        <ele>777.68</ele>
      </trkpt>
      <trkpt lat="35.32043" lon="-82.75522">
        <ele>777.49</ele>
      </trkpt>
      <trkpt lat="35.32047" lon="-82.75531">
        <ele>777.3</ele>
      </trkpt>
      <trkpt lat="35.32093" lon="-82.7561">
        <ele>777.64</ele>
      </trkpt>
      <trkpt lat="35.3215" lon="-82.757">
        <ele>779.4</ele>
      </trkpt>
      <trkpt lat="35.32159" lon="-82.75711">
        <ele>779.44</ele>
      </trkpt>
      <trkpt lat="35.32166" lon="-82.75717">
        <ele>778.95</ele>
      </trkpt>
      <trkpt lat="35.32188" lon="-82.75729">
        <ele>779.24</ele>
      </trkpt>
      <trkpt lat="35.32224" lon="-82.75768">
        <ele>778.99</ele>
      </trkpt>
      <trkpt lat="35.32249" lon="-82.75787">
        <ele>779.1</ele>
      </trkpt>
      <trkpt lat="35.3226" lon="-82.75797">
        <ele>778.07</ele>
      </trkpt>
      <trkpt lat="35.32266" lon="-82.7581">
        <ele>778.62</ele>
      </trkpt>
      <trkpt lat="35.32271" lon="-82.75831">
        <ele>780.28</ele>
      </trkpt>
      <trkpt lat="35.32271" lon="-82.75831">
        <ele>780.28</ele>
      </trkpt>
      <trkpt lat="35.3229" lon="-82.75866">
        <ele>781.76</ele>
      </trkpt>
      <trkpt lat="35.32296" lon="-82.75873">
        <ele>780.98</ele>
      </trkpt>
      <trkpt lat="35.32314" lon="-82.75882">
        <ele>780.37</ele>
      </trkpt>
      <trkpt lat="35.32332" lon="-82.75895">
        <ele>780.66</ele>
      </trkpt>
      <trkpt lat="35.32343" lon="-82.75898">
        <ele>781.0</ele>
      </trkpt>
      <trkpt lat="35.32342" lon="-82.75895">
        <ele>780.98</ele>
      </trkpt>
      <trkpt lat="35.32344" lon="-82.75874">
        <ele>782.0</ele>
      </trkpt>
      <trkpt lat="35.32352" lon="-82.7587">
        <ele>782.02</ele>
      </trkpt>
      <trkpt lat="35.32364" lon="-82.75866">
        <ele>783.47</ele>
      </trkpt>
      <trkpt lat="35.32364" lon="-82.75866">
        <ele>783.47</ele>
      </trkpt>
      <trkpt lat="35.32408" lon="-82.75852">
        <ele>785.05</ele>
      </trkpt>
      <trkpt lat="35.32433" lon="-82.7585">
        <ele>787.6</ele>
      </trkpt>
      <trkpt lat="35.32496" lon="-82.75829">
        <ele>788.81</ele>
      </trkpt>
      <trkpt lat="35.32523" lon="-82.75826">
        <ele>789.97</ele>
      </trkpt>
      <trkpt lat="35.32565" lon="-82.7583">
        <ele>791.09</ele>
      </trkpt>
      <trkpt lat="35.32598" lon="-82.75841">
        <ele>792.62</ele>
      </trkpt>
      <trkpt lat="35.32618" lon="-82.75844">
        <ele>792.73</ele>
      </trkpt>
      <trkpt lat="35.32657" lon="-82.75857">
        <ele>792.56</ele>
      </trkpt>
      <trkpt lat="35.32685" lon="-82.75859">
        <ele>794.76</ele>
      </trkpt>
      <trkpt lat="35.32687" lon="-82.75863">
        <ele>795.16</ele>
      </trkpt>
      <trkpt lat="35.32701" lon="-82.75867">
        <ele>796.26</ele>
      </trkpt>
      <trkpt lat="35.32742" lon="-82.75871">
        <ele>798.07</ele>
      </trkpt>
      <trkpt lat="35.32762" lon="-82.75874">
        <ele>799.12</ele>
      </trkpt>
      <trkpt lat="35.32795" lon="-82.75863">
        <ele>798.2</ele>
      </trkpt>
      <trkpt lat="35.32799" lon="-82.7586">
        <ele>798.04</ele>
      </trkpt>
      <trkpt lat="35.32809" lon="-82.75857">
        <ele>799.19</ele>
      </trkpt>
      <trkpt lat="35.32837" lon="-82.75868">
        <ele>804.3</ele>
      </trkpt>
      <trkpt lat="35.32846" lon="-82.75866">
        <ele>806.68</ele>
      </trkpt>
      <trkpt lat="35.32855" lon="-82.75859">
        <ele>808.82</ele>
      </trkpt>
      <trkpt lat="35.32864" lon="-82.75847">
        <ele>810.06</ele>
      </trkpt>
      <trkpt lat="35.32879" lon="-82.75815">
        <ele>812.98</ele>
      </trkpt>
      <trkpt lat="35.32881" lon="-82.75809">
        <ele>812.8</ele>
      </trkpt>
      <trkpt lat="35.32891" lon="-82.75803">
        <ele>812.49</ele>
      </trkpt>
      <trkpt lat="35.32895" lon="-82.75805">
        <ele>812.08</ele>
      </trkpt>
      <trkpt lat="35.32906" lon="-82.75813">
        <ele>809.54</ele>
      </trkpt>
      <trkpt lat="35.32922" lon="-82.75811">
        <ele>809.47</ele>
      </trkpt>
      <trkpt lat="35.3293" lon="-82.75812">
        <ele>808.37</ele>
      </trkpt>
      <trkpt lat="35.32938" lon="-82.7582">
        <ele>806.61</ele>
      </trkpt>
      <trkpt lat="35.32946" lon="-82.75824">
        <ele>807.0</ele>
      </trkpt>
      <trkpt lat="35.33011" lon="-82.75809">
        <ele>810.19</ele>
      </trkpt>
      <trkpt lat="35.33025" lon="-82.75807">
        <ele>811.0</ele>
      </trkpt>
      <trkpt lat="35.33043" lon="-82.75809">
        <ele>811.78</ele>
      </trkpt>
      <trkpt lat="35.33049" lon="-82.75807">
        <ele>812.54</ele>
      </trkpt>
      <trkpt lat="35.33076" lon="-82.75823">
        <ele>815.32</ele>
      </trkpt>
      <trkpt lat="35.33088" lon="-82.75828">
        <ele>816.08</ele>
      </trkpt>
      <trkpt lat="35.33155" lon="-82.75842">
        <ele>820.21</ele>
      </trkpt>
      <trkpt lat="35.33162" lon="-82.75842">
        <ele>820.66</ele>
      </trkpt>
      <trkpt lat="35.33182" lon="-82.75838">
        <ele>822.33</ele>
      </trkpt>
      <trkpt lat="35.33186" lon="-82.75836">
        <ele>822.69</ele>
      </trkpt>
      <trkpt lat="35.3321" lon="-82.75831">
        <ele>825.01</ele>
      </trkpt>
      <trkpt lat="35.33219" lon="-82.75833">
        <ele>825.71</ele>
      </trkpt>
      <trkpt lat="35.33296" lon="-82.75881">
        <ele>830.67</ele>
      </trkpt>
      <trkpt lat="35.33312" lon="-82.75889">
        <ele>832.67</ele>
      </trkpt>
      <trkpt lat="35.33318" lon="-82.75889">
        <ele>833.32</ele>
      </trkpt>
      <trkpt lat="35.33317" lon="-82.75883">
        <ele>834.99</ele>
      </trkpt>
      <trkpt lat="35.33305" lon="-82.75867">
        <ele>836.95</ele>
      </trkpt>
      <trkpt lat="35.33299" lon="-82.75855">
        <ele>838.2</ele>
      </trkpt>
      <trkpt lat="35.33286" lon="-82.75836">
        <ele>840.39</ele>
      </trkpt>
      <trkpt lat="35.3328" lon="-82.75829">
        <ele>842.52</ele>
      </trkpt>
      <trkpt lat="35.3328" lon="-82.75829">
        <ele>842.52</ele>
      </trkpt>
      <trkpt lat="35.33272" lon="-82.7582">
        <ele>844.07</ele>
      </trkpt>
      <trkpt lat="35.33263" lon="-82.75809">
        <ele>844.09</ele>
      </trkpt>
      <trkpt lat="35.33262" lon="-82.75795">
        <ele>845.18</ele>
      </trkpt>
      <trkpt lat="35.33264" lon="-82.75768">
        <ele>847.65</ele>
      </trkpt>
      <trkpt lat="35.33261" lon="-82.75761">
        <ele>848.69</ele>
      </trkpt>
      <trkpt lat="35.33255" lon="-82.75752">
        <ele>849.75</ele>
      </trkpt>
      <trkpt lat="35.33252" lon="-82.75743">
        <ele>849.76</ele>
      </trkpt>
      <trkpt lat="35.33253" lon="-82.75724">
        <ele>852.56</ele>
      </trkpt>
      <trkpt lat="35.33256" lon="-82.75706">
        <ele>854.06</ele>
      </trkpt>
      <trkpt lat="35.33263" lon="-82.75689">
        <ele>857.42</ele>
      </trkpt>
      <trkpt lat="35.33265" lon="-82.75673">
        <ele>858.4</ele>
      </trkpt>
      <trkpt lat="35.3327" lon="-82.75658">
        <ele>859.71</ele>
      </trkpt>
      <trkpt lat="35.33278" lon="-82.75652">
        <ele>861.31</ele>
      </trkpt>
      <trkpt lat="35.33287" lon="-82.75648">
        <ele>862.94</ele>
      </trkpt>
      <trkpt lat="35.33296" lon="-82.7564">
        <ele>863.03</ele>
      </trkpt>
      <trkpt lat="35.33306" lon="-82.75622">
        <ele>863.31</ele>
      </trkpt>
      <trkpt lat="35.33309" lon="-82.75611">
        <ele>864.12</ele>
      </trkpt>
      <trkpt lat="35.33311" lon="-82.75573">
        <ele>863.14</ele>
      </trkpt>
      <trkpt lat="35.33314" lon="-82.75558">
        <ele>862.32</ele>
      </trkpt>
      <trkpt lat="35.33319" lon="-82.75545">
        <ele>863.07</ele>
      </trkpt>
      <trkpt lat="35.3332" lon="-82.75536">
        <ele>864.23</ele>
      </trkpt>
      <trkpt lat="35.33312" lon="-82.75516">
        <ele>868.05</ele>
      </trkpt>
      <trkpt lat="35.33308" lon="-82.755">
        <ele>870.26</ele>
      </trkpt>
      <trkpt lat="35.33307" lon="-82.75466">
        <ele>872.83</ele>
      </trkpt>
      <trkpt lat="35.3331" lon="-82.75446">
        <ele>875.83</ele>
      </trkpt>
      <trkpt lat="35.33318" lon="-82.75418">
        <ele>882.15</ele>
      </trkpt>
      <trkpt lat="35.33334" lon="-82.75383">
        <ele>888.68</ele>
      </trkpt>
      <trkpt lat="35.33358" lon="-82.75355">
        <ele>894.76</ele>
      </trkpt>
      <trkpt lat="35.3338" lon="-82.75337">
        <ele>899.35</ele>
      </trkpt>
      <trkpt lat="35.33395" lon="-82.75322">
        <ele>900.13</ele>
      </trkpt>
      <trkpt lat="35.33397" lon="-82.75313">
        <ele>901.59</ele>
      </trkpt>
      <trkpt lat="35.33392" lon="-82.75306">
        <ele>902.97</ele>
      </trkpt>
      <trkpt lat="35.33375" lon="-82.75298">
        <ele>904.72</ele>
      </trkpt>
      <trkpt lat="35.33346" lon="-82.75277">
        <ele>907.25</ele>
      </trkpt>
      <trkpt lat="35.33301" lon="-82.7526">
        <ele>910.68</ele>
      </trkpt>
      <trkpt lat="35.3329" lon="-82.75259">
        <ele>910.44</ele>
      </trkpt>
      <trkpt lat="35.33283" lon="-82.75263">
        <ele>910.42</ele>
      </trkpt>
      <trkpt lat="35.33278" lon="-82.75272">
        <ele>911.91</ele>
      </trkpt>
      <trkpt lat="35.33272" lon="-82.7529">
        <ele>915.72</ele>
      </trkpt>
      <trkpt lat="35.33268" lon="-82.75295">
        <ele>916.39</ele>
      </trkpt>
      <trkpt lat="35.33258" lon="-82.75297">
        <ele>917.5</ele>
      </trkpt>
      <trkpt lat="35.33236" lon="-82.75293">
        <ele>916.47</ele>
      </trkpt>
      <trkpt lat="35.33222" lon="-82.75296">
        <ele>916.16</ele>
      </trkpt>
      <trkpt lat="35.33211" lon="-82.75293">
        <ele>917.06</ele>
      </trkpt>
      <trkpt lat="35.33204" lon="-82.75287">
        <ele>917.1</ele>
      </trkpt>
      <trkpt lat="35.33195" lon="-82.75266">
        <ele>917.47</ele>
      </trkpt>
      <trkpt lat="35.33189" lon="-82.75256">
        <ele>917.97</ele>
      </trkpt>
      <trkpt lat="35.3318" lon="-82.75251">
        <ele>919.34</ele>
      </trkpt>
      <trkpt lat="35.33171" lon="-82.7527">
        <ele>918.6</ele>
      </trkpt>
      <trkpt lat="35.33171" lon="-82.75292">
        <ele>920.17</ele>
      </trkpt>
      <trkpt lat="35.33188" lon="-82.75341">
        <ele>920.56</ele>
      </trkpt>
      <trkpt lat="35.33185" lon="-82.75351">
        <ele>922.04</ele>
      </trkpt>
      <trkpt lat="35.33178" lon="-82.75359">
        <ele>922.78</ele>
      </trkpt>
      <trkpt lat="35.33173" lon="-82.75362">
        <ele>922.81</ele>
      </trkpt>
      <trkpt lat="35.33166" lon="-82.75359">
        <ele>923.47</ele>
      </trkpt>
      <trkpt lat="35.33146" lon="-82.75355">
        <ele>925.21</ele>
      </trkpt>
      <trkpt lat="35.33132" lon="-82.75354">
        <ele>926.48</ele>
      </trkpt>
      <trkpt lat="35.33108" lon="-82.75347">
        <ele>928.58</ele>
      </trkpt>
      <trkpt lat="35.33098" lon="-82.75342">
        <ele>927.94</ele>
      </trkpt>
      <trkpt lat="35.33081" lon="-82.75309">
        <ele>929.59</ele>
      </trkpt>
      <trkpt lat="35.33076" lon="-82.75286">
        <ele>931.03</ele>
      </trkpt>
      <trkpt lat="35.33074" lon="-82.75272">
        <ele>933.25</ele>
      </trkpt>
      <trkpt lat="35.33064" lon="-82.75266">
        <ele>934.87</ele>
      </trkpt>
      <trkpt lat="35.33058" lon="-82.75274">
        <ele>935.92</ele>
      </trkpt>
      <trkpt lat="35.33054" lon="-82.75291">
        <ele>934.24</ele>
      </trkpt>
      <trkpt lat="35.33055" lon="-82.75307">
        <ele>932.3</ele>
      </trkpt>
      <trkpt lat="35.33059" lon="-82.75334">
        <ele>931.88</ele>
      </trkpt>
      <trkpt lat="35.33057" lon="-82.75347">
        <ele>932.61</ele>
      </trkpt>
      <trkpt lat="35.33053" lon="-82.75359">
        <ele>933.61</ele>
      </trkpt>
      <trkpt lat="35.33048" lon="-82.75364">
        <ele>934.12</ele>
      </trkpt>
      <trkpt lat="35.33041" lon="-82.75363">
        <ele>934.02</ele>
      </trkpt>
      <trkpt lat="35.33036" lon="-82.7536">
        <ele>934.14</ele>
      </trkpt>
      <trkpt lat="35.33021" lon="-82.75344">
        <ele>936.23</ele>
      </trkpt>
      <trkpt lat="35.33008" lon="-82.75338">
        <ele>939.62</ele>
      </trkpt>
      <trkpt lat="35.33001" lon="-82.75341">
        <ele>939.41</ele>
      </trkpt>
      <trkpt lat="35.32996" lon="-82.75352">
        <ele>938.86</ele>
      </trkpt>
      <trkpt lat="35.32994" lon="-82.7537">
        <ele>938.96</ele>
      </trkpt>
      <trkpt lat="35.32988" lon="-82.75382">
        <ele>939.59</ele>
      </trkpt>
      <trkpt lat="35.32982" lon="-82.75389">
        <ele>940.88</ele>
      </trkpt>
      <trkpt lat="35.32971" lon="-82.75395">
        <ele>941.47</ele>
      </trkpt>
      <trkpt lat="35.32959" lon="-82.75393">
        <ele>942.56</ele>
      </trkpt>
      <trkpt lat="35.32952" lon="-82.75389">
        <ele>942.8</ele>
      </trkpt>
      <trkpt lat="35.32946" lon="-82.7538">
        <ele>943.29</ele>
      </trkpt>
      <trkpt lat="35.32942" lon="-82.75369">
        <ele>944.09</ele>
      </trkpt>
      <trkpt lat="35.32942" lon="-82.75355">
        <ele>944.94</ele>
      </trkpt>
      <trkpt lat="35.32952" lon="-82.75286">
        <ele>946.29</ele>
      </trkpt>
      <trkpt lat="35.32957" lon="-82.75271">
        <ele>945.77</ele>
      </trkpt>
      <trkpt lat="35.32975" lon="-82.75242">
        <ele>946.53</ele>
      </trkpt>
      <trkpt lat="35.3299" lon="-82.75223">
        <ele>949.76</ele>
      </trkpt>
      <trkpt lat="35.32993" lon="-82.75213">
        <ele>949.74</ele>
      </trkpt>
      <trkpt lat="35.32996" lon="-82.75199">
        <ele>950.48</ele>
      </trkpt>
      <trkpt lat="35.33005" lon="-82.75168">
        <ele>950.69</ele>
      </trkpt>
      <trkpt lat="35.33005" lon="-82.75158">
        <ele>950.55</ele>
      </trkpt>
      <trkpt lat="35.33003" lon="-82.75146">
        <ele>950.56</ele>
      </trkpt>
      <trkpt lat="35.32992" lon="-82.75123">
        <ele>952.57</ele>
      </trkpt>
      <trkpt lat="35.32985" lon="-82.75115">
        <ele>953.54</ele>
      </trkpt>
      <trkpt lat="35.32973" lon="-82.75101">
        <ele>955.36</ele>
      </trkpt>
      <trkpt lat="35.32958" lon="-82.7509">
        <ele>956.87</ele>
      </trkpt>
      <trkpt lat="35.32948" lon="-82.7508">
        <ele>956.49</ele>
      </trkpt>
      <trkpt lat="35.32937" lon="-82.75063">
        <ele>957.98</ele>
      </trkpt>
      <trkpt lat="35.32933" lon="-82.75054">
        <ele>958.67</ele>
      </trkpt>
      <trkpt lat="35.32922" lon="-82.75045">
        <ele>958.57</ele>
      </trkpt>
      <trkpt lat="35.32891" lon="-82.75022">
        <ele>961.19</ele>
      </trkpt>
      <trkpt lat="35.32868" lon="-82.74999">
        <ele>964.08</ele>
      </trkpt>
      <trkpt lat="35.32864" lon="-82.74991">
        <ele>964.3</ele>
      </trkpt>
      <trkpt lat="35.32864" lon="-82.7499">
        <ele>964.31</ele>
      </trkpt>
      <trkpt lat="35.32864" lon="-82.7499">
        <ele>964.31</ele>
      </trkpt>
      <trkpt lat="35.32866" lon="-82.74982">
        <ele>964.53</ele>
      </trkpt>
      <trkpt lat="35.32871" lon="-82.74989">
        <ele>965.09</ele>
      </trkpt>
      <trkpt lat="35.32907" lon="-82.75001">
        <ele>970.55</ele>
      </trkpt>
      <trkpt lat="35.32933" lon="-82.75016">
        <ele>971.17</ele>
      </trkpt>
      <trkpt lat="35.32945" lon="-82.75033">
        <ele>967.46</ele>
      </trkpt>
      <trkpt lat="35.32958" lon="-82.75044">
        <ele>967.67</ele>
      </trkpt>
      <trkpt lat="35.33005" lon="-82.7506">
        <ele>969.1</ele>
      </trkpt>
      <trkpt lat="35.33031" lon="-82.75066">
        <ele>968.62</ele>
      </trkpt>
      <trkpt lat="35.33045" lon="-82.75067">
        <ele>968.29</ele>
      </trkpt>
      <trkpt lat="35.33058" lon="-82.75071">
        <ele>966.82</ele>
      </trkpt>
      <trkpt lat="35.33072" lon="-82.7507">
        <ele>966.08</ele>
      </trkpt>
      <trkpt lat="35.3309" lon="-82.75049">
        <ele>969.68</ele>
      </trkpt>
      <trkpt lat="35.331" lon="-82.7505">
        <ele>969.28</ele>
      </trkpt>
      <trkpt lat="35.33116" lon="-82.75054">
        <ele>970.2</ele>
      </trkpt>
      <trkpt lat="35.3313" lon="-82.75055">
        <ele>968.26</ele>
      </trkpt>
      <trkpt lat="35.33138" lon="-82.75063">
        <ele>966.14</ele>
      </trkpt>
      <trkpt lat="35.3315" lon="-82.75099">
        <ele>965.28</ele>
      </trkpt>
      <trkpt lat="35.33165" lon="-82.75111">
        <ele>966.51</ele>
      </trkpt>
      <trkpt lat="35.33181" lon="-82.75116">
        <ele>967.44</ele>
      </trkpt>
      <trkpt lat="35.33217" lon="-82.75122">
        <ele>965.86</ele>
      </trkpt>
      <trkpt lat="35.33228" lon="-82.75121">
        <ele>964.52</ele>
      </trkpt>
      <trkpt lat="35.33234" lon="-82.7511">
        <ele>966.21</ele>
      </trkpt>
      <trkpt lat="35.33242" lon="-82.75104">
        <ele>965.07</ele>
      </trkpt>
      <trkpt lat="35.33252" lon="-82.75109">
        <ele>963.83</ele>
      </trkpt>
      <trkpt lat="35.33269" lon="-82.75132">
        <ele>962.12</ele>
      </trkpt>
      <trkpt lat="35.3328" lon="-82.75135">
        <ele>962.96</ele>
      </trkpt>
      <trkpt lat="35.33297" lon="-82.7513">
        <ele>963.53</ele>
      </trkpt>
      <trkpt lat="35.33316" lon="-82.75122">
        <ele>962.32</ele>
      </trkpt>
      <trkpt lat="35.33334" lon="-82.75118">
        <ele>959.72</ele>
      </trkpt>
      <trkpt lat="35.33351" lon="-82.75119">
        <ele>958.04</ele>
      </trkpt>
      <trkpt lat="35.33364" lon="-82.75117">
        <ele>958.33</ele>
      </trkpt>
      <trkpt lat="35.33368" lon="-82.75115">
        <ele>958.13</ele>
      </trkpt>
      <trkpt lat="35.33379" lon="-82.75104">
        <ele>957.46</ele>
      </trkpt>
      <trkpt lat="35.33384" lon="-82.75099">
        <ele>957.34</ele>
      </trkpt>
      <trkpt lat="35.33394" lon="-82.75101">
        <ele>955.47</ele>
      </trkpt>
      <trkpt lat="35.33424" lon="-82.75115">
        <ele>954.78</ele>
      </trkpt>
      <trkpt lat="35.33436" lon="-82.75116">
        <ele>955.63</ele>
      </trkpt>
      <trkpt lat="35.33447" lon="-82.75105">
        <ele>955.83</ele>
      </trkpt>
      <trkpt lat="35.3346" lon="-82.75086">
        <ele>956.71</ele>
      </trkpt>
      <trkpt lat="35.33465" lon="-82.75083">
        <ele>955.1</ele>
      </trkpt>
      <trkpt lat="35.33465" lon="-82.75083">
        <ele>955.1</ele>
      </trkpt>
      <trkpt lat="35.33468" lon="-82.75081">
        <ele>954.52</ele>
      </trkpt>
      <trkpt lat="35.33479" lon="-82.75079">
        <ele>950.77</ele>
      </trkpt>
      <trkpt lat="35.3349" lon="-82.75086">
        <ele>951.55</ele>
      </trkpt>
      <trkpt lat="35.33495" lon="-82.7509">
        <ele>952.33</ele>
      </trkpt>
      <trkpt lat="35.33504" lon="-82.75101">
        <ele>953.47</ele>
      </trkpt>
      <trkpt lat="35.33507" lon="-82.75107">
        <ele>953.85</ele>
      </trkpt>
      <trkpt lat="35.3352" lon="-82.75108">
        <ele>956.28</ele>
      </trkpt>
      <trkpt lat="35.33532" lon="-82.75115">
        <ele>956.0</ele>
      </trkpt>
      <trkpt lat="35.33534" lon="-82.75122">
        <ele>956.19</ele>
      </trkpt>
      <trkpt lat="35.33534" lon="-82.75131">
        <ele>956.97</ele>
      </trkpt>
      <trkpt lat="35.33542" lon="-82.75146">
        <ele>957.3</ele>
      </trkpt>
      <trkpt lat="35.33556" lon="-82.75155">
        <ele>959.33</ele>
      </trkpt>
      <trkpt lat="35.33569" lon="-82.75161">
        <ele>960.13</ele>
      </trkpt>
      <trkpt lat="35.33589" lon="-82.7517">
        <ele>962.5</ele>
      </trkpt>
      <trkpt lat="35.33622" lon="-82.75206">
        <ele>964.37</ele>
      </trkpt>
      <trkpt lat="35.3364" lon="-82.75231">
        <ele>966.42</ele>
      </trkpt>
      <trkpt lat="35.33648" lon="-82.75257">
        <ele>967.2</ele>
      </trkpt>
      <trkpt lat="35.33643" lon="-82.75301">
        <ele>969.45</ele>
      </trkpt>
      <trkpt lat="35.33642" lon="-82.75321">
        <ele>969.02</ele>
      </trkpt>
      <trkpt lat="35.33632" lon="-82.75336">
        <ele>965.07</ele>
      </trkpt>
      <trkpt lat="35.33624" lon="-82.75353">
        <ele>966.42</ele>
      </trkpt>
      <trkpt lat="35.33617" lon="-82.75373">
        <ele>965.8</ele>
      </trkpt>
      <trkpt lat="35.33611" lon="-82.75398">
        <ele>962.94</ele>
      </trkpt>
      <trkpt lat="35.33598" lon="-82.7542">
        <ele>961.96</ele>
      </trkpt>
      <trkpt lat="35.33594" lon="-82.75431">
        <ele>962.01</ele>
      </trkpt>
      <trkpt lat="35.33592" lon="-82.7548">
        <ele>962.66</ele>
      </trkpt>
      <trkpt lat="35.33588" lon="-82.75499">
        <ele>962.85</ele>
      </trkpt>
      <trkpt lat="35.33582" lon="-82.7551">
        <ele>962.61</ele>
      </trkpt>
      <trkpt lat="35.3355" lon="-82.75538">
        <ele>963.55</ele>
      </trkpt>
      <trkpt lat="35.33541" lon="-82.75552">
        <ele>964.34</ele>
      </trkpt>
      <trkpt lat="35.33536" lon="-82.75582">
        <ele>968.02</ele>
      </trkpt>
      <trkpt lat="35.33536" lon="-82.75598">
        <ele>969.2</ele>
      </trkpt>
      <trkpt lat="35.33546" lon="-82.75606">
        <ele>970.53</ele>
      </trkpt>
      <trkpt lat="35.3358" lon="-82.75617">
        <ele>973.37</ele>
      </trkpt>
      <trkpt lat="35.33592" lon="-82.75624">
        <ele>974.45</ele>
      </trkpt>
      <trkpt lat="35.3363" lon="-82.75669">
        <ele>980.65</ele>
      </trkpt>
      <trkpt lat="35.33638" lon="-82.75676">
        <ele>981.7</ele>
      </trkpt>
      <trkpt lat="35.33649" lon="-82.7568">
        <ele>982.92</ele>
      </trkpt>
      <trkpt lat="35.33661" lon="-82.75682">
        <ele>984.38</ele>
      </trkpt>
      <trkpt lat="35.33668" lon="-82.75682">
        <ele>984.47</ele>
      </trkpt>
      <trkpt lat="35.33675" lon="-82.75679">
        <ele>985.97</ele>
      </trkpt>
      <trkpt lat="35.33712" lon="-82.75648">
        <ele>991.39</ele>
      </trkpt>
      <trkpt lat="35.3373" lon="-82.75631">
        <ele>992.17</ele>
      </trkpt>
      <trkpt lat="35.33742" lon="-82.7561">
        <ele>994.92</ele>
      </trkpt>
      <trkpt lat="35.33767" lon="-82.75548">
        <ele>1002.45</ele>
      </trkpt>
      <trkpt lat="35.33776" lon="-82.75548">
        <ele>999.92</ele>
      </trkpt>
      <trkpt lat="35.33793" lon="-82.75542">
        <ele>1001.84</ele>
      </trkpt>
      <trkpt lat="35.33804" lon="-82.75535">
        <ele>1002.16</ele>
      </trkpt>
      <trkpt lat="35.33813" lon="-82.75524">
        <ele>1003.29</ele>
      </trkpt>
      <trkpt lat="35.33818" lon="-82.75513">
        <ele>1005.1</ele>
      </trkpt>
      <trkpt lat="35.33831" lon="-82.75501">
        <ele>1007.07</ele>
      </trkpt>
      <trkpt lat="35.33838" lon="-82.75499">
        <ele>1006.93</ele>
      </trkpt>
      <trkpt lat="35.33845" lon="-82.75498">
        <ele>1007.12</ele>
      </trkpt>
      <trkpt lat="35.33852" lon="-82.75501">
        <ele>1006.74</ele>
      </trkpt>
      <trkpt lat="35.33859" lon="-82.75507">
        <ele>1007.24</ele>
      </trkpt>
      <trkpt lat="35.33893" lon="-82.7555">
        <ele>1013.06</ele>
      </trkpt>
      <trkpt lat="35.33908" lon="-82.75558">
        <ele>1015.52</ele>
      </trkpt>
      <trkpt lat="35.33911" lon="-82.75556">
        <ele>1016.27</ele>
      </trkpt>
      <trkpt lat="35.33911" lon="-82.75556">
        <ele>1016.27</ele>
      </trkpt>
      <trkpt lat="35.33923" lon="-82.75548">
        <ele>1017.95</ele>
      </trkpt>
      <trkpt lat="35.33928" lon="-82.75547">
        <ele>1017.64</ele>
      </trkpt>
      <trkpt lat="35.33931" lon="-82.75551">
        <ele>1016.71</ele>
      </trkpt>
      <trkpt lat="35.33946" lon="-82.75527">
        <ele>1018.25</ele>
      </trkpt>
      <trkpt lat="35.3396" lon="-82.75514">
        <ele>1020.49</ele>
      </trkpt>
      <trkpt lat="35.33975" lon="-82.75511">
        <ele>1020.57</ele>
      </trkpt>
      <trkpt lat="35.33994" lon="-82.75497">
        <ele>1020.79</ele>
      </trkpt>
      <trkpt lat="35.34011" lon="-82.75481">
        <ele>1025.2</ele>
      </trkpt>
      <trkpt lat="35.34021" lon="-82.75457">
        <ele>1027.54</ele>
      </trkpt>
      <trkpt lat="35.34036" lon="-82.7541">
        <ele>1032.7</ele>
      </trkpt>
      <trkpt lat="35.34063" lon="-82.75357">
        <ele>1038.97</ele>
      </trkpt>
      <trkpt lat="35.34101" lon="-82.75308">
        <ele>1047.72</ele>
      </trkpt>
      <trkpt lat="35.34123" lon="-82.75269">
        <ele>1052.9</ele>
      </trkpt>
      <trkpt lat="35.34141" lon="-82.75232">
        <ele>1057.92</ele>
      </trkpt>
      <trkpt lat="35.34158" lon="-82.75207">
        <ele>1065.26</ele>
      </trkpt>
      <trkpt lat="35.34196" lon="-82.75154">
        <ele>1082.37</ele>
      </trkpt>
      <trkpt lat="35.34206" lon="-82.75144">
        <ele>1083.45</ele>
      </trkpt>
      <trkpt lat="35.34219" lon="-82.75138">
        <ele>1082.85</ele>
      </trkpt>
      <trkpt lat="35.34231" lon="-82.75135">
        <ele>1082.04</ele>
      </trkpt>
      <trkpt lat="35.34251" lon="-82.75156">
        <ele>1079.23</ele>
      </trkpt>
      <trkpt lat="35.34252" lon="-82.75159">
        <ele>1079.35</ele>
      </trkpt>
      <trkpt lat="35.34252" lon="-82.75159">
        <ele>1079.35</ele>
      </trkpt>
      <trkpt lat="35.34258" lon="-82.75179">
        <ele>1079.5</ele>
      </trkpt>
      <trkpt lat="35.3426" lon="-82.75202">
        <ele>1079.68</ele>
      </trkpt>
      <trkpt lat="35.34259" lon="-82.75223">
        <ele>1078.25</ele>
      </trkpt>
      <trkpt lat="35.34263" lon="-82.75244">
        <ele>1078.33</ele>
      </trkpt>
      <trkpt lat="35.3427" lon="-82.7527">
        <ele>1076.57</ele>
      </trkpt>
      <trkpt lat="35.34272" lon="-82.75274">
        <ele>1076.53</ele>
      </trkpt>
      <trkpt lat="35.34279" lon="-82.75279">
        <ele>1075.52</ele>
      </trkpt>
      <trkpt lat="35.34284" lon="-82.75295">
        <ele>1076.8</ele>
      </trkpt>
      <trkpt lat="35.34288" lon="-82.753">
        <ele>1075.96</ele>
      </trkpt>
      <trkpt lat="35.3429" lon="-82.75306">
        <ele>1076.1</ele>
      </trkpt>
      <trkpt lat="35.3431" lon="-82.75312">
        <ele>1072.52</ele>
      </trkpt>
      <trkpt lat="35.34322" lon="-82.75312">
        <ele>1072.26</ele>
      </trkpt>
      <trkpt lat="35.34326" lon="-82.75309">
        <ele>1071.61</ele>
      </trkpt>
      <trkpt lat="35.34338" lon="-82.75303">
        <ele>1074.19</ele>
      </trkpt>
      <trkpt lat="35.34346" lon="-82.75288">
        <ele>1072.78</ele>
      </trkpt>
      <trkpt lat="35.34352" lon="-82.75271">
        <ele>1071.59</ele>
      </trkpt>
      <trkpt lat="35.34366" lon="-82.7525">
        <ele>1070.58</ele>
      </trkpt>
      <trkpt lat="35.34387" lon="-82.75227">
        <ele>1069.04</ele>
      </trkpt>
      <trkpt lat="35.34405" lon="-82.75209">
        <ele>1068.94</ele>
      </trkpt>
      <trkpt lat="35.34411" lon="-82.75203">
        <ele>1068.97</ele>
      </trkpt>
      <trkpt lat="35.34417" lon="-82.752">
        <ele>1070.24</ele>
      </trkpt>
      <trkpt lat="35.34435" lon="-82.75196">
        <ele>1071.15</ele>
      </trkpt>
      <trkpt lat="35.34448" lon="-82.75207">
        <ele>1070.81</ele>
      </trkpt>
      <trkpt lat="35.34454" lon="-82.75218">
        <ele>1070.39</ele>
      </trkpt>
      <trkpt lat="35.34459" lon="-82.75225">
        <ele>1069.18</ele>
      </trkpt>
      <trkpt lat="35.34466" lon="-82.75231">
        <ele>1068.21</ele>
      </trkpt>
      <trkpt lat="35.34474" lon="-82.75232">
        <ele>1067.35</ele>
      </trkpt>
      <trkpt lat="35.34486" lon="-82.75232">
        <ele>1068.14</ele>
      </trkpt>
      <trkpt lat="35.34499" lon="-82.75228">
        <ele>1067.76</ele>
      </trkpt>
      <trkpt lat="35.34515" lon="-82.75227">
        <ele>1069.29</ele>
      </trkpt>
      <trkpt lat="35.3455" lon="-82.75192">
        <ele>1063.21</ele>
      </trkpt>
      <trkpt lat="35.34558" lon="-82.75176">
        <ele>1063.34</ele>
      </trkpt>
      <trkpt lat="35.34563" lon="-82.75158">
        <ele>1064.1</ele>
      </trkpt>
      <trkpt lat="35.34571" lon="-82.75138">
        <ele>1063.84</ele>
      </trkpt>
      <trkpt lat="35.34584" lon="-82.75092">
        <ele>1060.97</ele>
      </trkpt>
      <trkpt lat="35.34598" lon="-82.75069">
        <ele>1060.56</ele>
      </trkpt>
      <trkpt lat="35.34612" lon="-82.75053">
        <ele>1061.82</ele>
      </trkpt>
      <trkpt lat="35.34633" lon="-82.75048">
        <ele>1061.82</ele>
      </trkpt>
      <trkpt lat="35.34649" lon="-82.75058">
        <ele>1059.88</ele>
      </trkpt>
      <trkpt lat="35.34662" lon="-82.75074">
        <ele>1059.49</ele>
      </trkpt>
      <trkpt lat="35.34673" lon="-82.75097">
        <ele>1058.69</ele>
      </trkpt>
      <trkpt lat="35.34704" lon="-82.75117">
        <ele>1056.81</ele>
      </trkpt>
      <trkpt lat="35.34738" lon="-82.75141">
        <ele>1055.75</ele>
      </trkpt>
      <trkpt lat="35.34772" lon="-82.75173">
        <ele>1056.31</ele>
      </trkpt>
      <trkpt lat="35.34784" lon="-82.75173">
        <ele>1055.68</ele>
      </trkpt>
      <trkpt lat="35.34798" lon="-82.75167">
        <ele>1054.07</ele>
      </trkpt>
      <trkpt lat="35.34814" lon="-82.75149">
        <ele>1054.92</ele>
      </trkpt>
      <trkpt lat="35.34818" lon="-82.75124">
        <ele>1055.13</ele>
      </trkpt>
      <trkpt lat="35.34817" lon="-82.75097">
        <ele>1052.31</ele>
      </trkpt>
      <trkpt lat="35.34818" lon="-82.75078">
        <ele>1052.44</ele>
      </trkpt>
      <trkpt lat="35.34808" lon="-82.75063">
        <ele>1053.62</ele>
      </trkpt>
      <trkpt lat="35.34803" lon="-82.75056">
        <ele>1053.68</ele>
      </trkpt>
      <trkpt lat="35.34796" lon="-82.75036">
        <ele>1052.8</ele>
      </trkpt>
      <trkpt lat="35.34787" lon="-82.74998">
        <ele>1050.99</ele>
      </trkpt>
      <trkpt lat="35.34785" lon="-82.74955">
        <ele>1048.7</ele>
      </trkpt>
      <trkpt lat="35.34795" lon="-82.74937">
        <ele>1047.0</ele>
      </trkpt>
      <trkpt lat="35.34818" lon="-82.74917">
        <ele>1045.78</ele>
      </trkpt>
      <trkpt lat="35.34822" lon="-82.74912">
        <ele>1047.38</ele>
      </trkpt>
      <trkpt lat="35.34823" lon="-82.74901">
        <ele>1046.89</ele>
      </trkpt>
      <trkpt lat="35.34823" lon="-82.74885">
        <ele>1048.12</ele>
      </trkpt>
      <trkpt lat="35.34817" lon="-82.74871">
        <ele>1048.4</ele>
      </trkpt>
      <trkpt lat="35.3479" lon="-82.74839">
        <ele>1046.61</ele>
      </trkpt>
      <trkpt lat="35.34769" lon="-82.74809">
        <ele>1045.76</ele>
      </trkpt>
      <trkpt lat="35.34762" lon="-82.74797">
        <ele>1044.81</ele>
      </trkpt>
      <trkpt lat="35.34758" lon="-82.74785">
        <ele>1045.68</ele>
      </trkpt>
      <trkpt lat="35.34747" lon="-82.74761">
        <ele>1044.65</ele>
      </trkpt>
      <trkpt lat="35.34731" lon="-82.74742">
        <ele>1044.77</ele>
      </trkpt>
      <trkpt lat="35.34721" lon="-82.7474">
        <ele>1043.02</ele>
      </trkpt>
      <trkpt lat="35.3471" lon="-82.7473">
        <ele>1042.58</ele>
      </trkpt>
      <trkpt lat="35.34704" lon="-82.74718">
        <ele>1041.58</ele>
      </trkpt>
      <trkpt lat="35.34698" lon="-82.74699">
        <ele>1040.54</ele>
      </trkpt>
      <trkpt lat="35.34694" lon="-82.74673">
        <ele>1041.47</ele>
      </trkpt>
      <trkpt lat="35.34688" lon="-82.74655">
        <ele>1040.22</ele>
      </trkpt>
      <trkpt lat="35.34687" lon="-82.74642">
        <ele>1039.65</ele>
      </trkpt>
      <trkpt lat="35.34693" lon="-82.7462">
        <ele>1037.64</ele>
      </trkpt>
      <trkpt lat="35.347" lon="-82.74597">
        <ele>1034.55</ele>
      </trkpt>
      <trkpt lat="35.34706" lon="-82.74594">
        <ele>1033.88</ele>
      </trkpt>
      <trkpt lat="35.34713" lon="-82.74593">
        <ele>1032.18</ele>
      </trkpt>
      <trkpt lat="35.34741" lon="-82.74608">
        <ele>1034.92</ele>
      </trkpt>
      <trkpt lat="35.34751" lon="-82.74626">
        <ele>1035.89</ele>
      </trkpt>
      <trkpt lat="35.34761" lon="-82.74667">
        <ele>1033.25</ele>
      </trkpt>
      <trkpt lat="35.34767" lon="-82.74687">
        <ele>1032.92</ele>
      </trkpt>
      <trkpt lat="35.34783" lon="-82.7471">
        <ele>1033.1</ele>
      </trkpt>
      <trkpt lat="35.34803" lon="-82.74728">
        <ele>1033.07</ele>
      </trkpt>
      <trkpt lat="35.34832" lon="-82.74758">
        <ele>1030.88</ele>
      </trkpt>
      <trkpt lat="35.3484" lon="-82.74762">
        <ele>1030.74</ele>
      </trkpt>
      <trkpt lat="35.34849" lon="-82.74754">
        <ele>1029.21</ele>
      </trkpt>
      <trkpt lat="35.34864" lon="-82.74738">
        <ele>1030.7</ele>
      </trkpt>
      <trkpt lat="35.34887" lon="-82.74728">
        <ele>1030.8</ele>
      </trkpt>
      <trkpt lat="35.34914" lon="-82.74723">
        <ele>1027.72</ele>
      </trkpt>
      <trkpt lat="35.3493" lon="-82.74716">
        <ele>1026.72</ele>
      </trkpt>
      <trkpt lat="35.34937" lon="-82.74709">
        <ele>1026.96</ele>
      </trkpt>
      <trkpt lat="35.34945" lon="-82.74699">
        <ele>1028.06</ele>
      </trkpt>
      <trkpt lat="35.34975" lon="-82.74659">
        <ele>1021.54</ele>
      </trkpt>
      <trkpt lat="35.34982" lon="-82.74656">
        <ele>1022.87</ele>
      </trkpt>
      <trkpt lat="35.34989" lon="-82.74648">
        <ele>1024.23</ele>
      </trkpt>
      <trkpt lat="35.34991" lon="-82.74637">
        <ele>1023.74</ele>
      </trkpt>
      <trkpt lat="35.35" lon="-82.74583">
        <ele>1023.96</ele>
      </trkpt>
      <trkpt lat="35.34998" lon="-82.74523">
        <ele>1021.57</ele>
      </trkpt>
      <trkpt lat="35.3501" lon="-82.74487">
        <ele>1020.64</ele>
      </trkpt>
      <trkpt lat="35.35023" lon="-82.74477">
        <ele>1018.8</ele>
      </trkpt>
      <trkpt lat="35.35032" lon="-82.74478">
        <ele>1018.13</ele>
      </trkpt>
      <trkpt lat="35.35038" lon="-82.74483">
        <ele>1018.27</ele>
      </trkpt>
      <trkpt lat="35.35064" lon="-82.74514">
        <ele>1018.24</ele>
      </trkpt>
      <trkpt lat="35.35067" lon="-82.74521">
        <ele>1019.06</ele>
      </trkpt>
      <trkpt lat="35.35078" lon="-82.7454">
        <ele>1018.15</ele>
      </trkpt>
      <trkpt lat="35.35082" lon="-82.74552">
        <ele>1017.29</ele>
      </trkpt>
      <trkpt lat="35.35087" lon="-82.74559">
        <ele>1015.59</ele>
      </trkpt>
      <trkpt lat="35.35088" lon="-82.746">
        <ele>1014.08</ele>
      </trkpt>
      <trkpt lat="35.35108" lon="-82.74637">
        <ele>1014.86</ele>
      </trkpt>
      <trkpt lat="35.35123" lon="-82.74638">
        <ele>1013.97</ele>
      </trkpt>
      <trkpt lat="35.35139" lon="-82.74625">
        <ele>1013.51</ele>
      </trkpt>
      <trkpt lat="35.35149" lon="-82.7462">
        <ele>1014.23</ele>
      </trkpt>
      <trkpt lat="35.35155" lon="-82.74605">
        <ele>1013.99</ele>
      </trkpt>
      <trkpt lat="35.35161" lon="-82.74558">
        <ele>1012.39</ele>
      </trkpt>
      <trkpt lat="35.35159" lon="-82.74529">
        <ele>1011.63</ele>
      </trkpt>
      <trkpt lat="35.35151" lon="-82.7449">
        <ele>1010.0</ele>
      </trkpt>
      <trkpt lat="35.3514" lon="-82.74433">
        <ele>1006.6</ele>
      </trkpt>
      <trkpt lat="35.35134" lon="-82.74408">
        <ele>1007.35</ele>
      </trkpt>
      <trkpt lat="35.35122" lon="-82.74385">
        <ele>1007.37</ele>
      </trkpt>
      <trkpt lat="35.35114" lon="-82.74362">
        <ele>1008.12</ele>
      </trkpt>
      <trkpt lat="35.35112" lon="-82.74344">
        <ele>1006.48</ele>
      </trkpt>
      <trkpt lat="35.35113" lon="-82.74321">
        <ele>1005.14</ele>
      </trkpt>
      <trkpt lat="35.35121" lon="-82.74308">
        <ele>1004.28</ele>
      </trkpt>
      <trkpt lat="35.35139" lon="-82.74298">
        <ele>999.75</ele>
      </trkpt>
      <trkpt lat="35.35156" lon="-82.74285">
        <ele>1000.11</ele>
      </trkpt>
      <trkpt lat="35.35158" lon="-82.74256">
        <ele>1000.21</ele>
      </trkpt>
      <trkpt lat="35.35153" lon="-82.74242">
        <ele>1000.3</ele>
      </trkpt>
      <trkpt lat="35.35135" lon="-82.74219">
        <ele>1002.06</ele>
      </trkpt>
      <trkpt lat="35.35116" lon="-82.742">
        <ele>1001.14</ele>
      </trkpt>
      <trkpt lat="35.35116" lon="-82.74199">
        <ele>1001.3</ele>
      </trkpt>
    </trkseg>
  </trk>
</gpx>
