<?xml version="1.0"?>
<gpx xmlns="http://www.topografix.com/GPX/1/1" xmlns:xsi="http://www.w3.org/2001/XMLSchema-instance" version="1.1" creator="AllTrails.com" xsi:schemaLocation="http://www.topografix.com/GPX/1/1 http://www.topografix.com/GPX/1/1/gpx.xsd">
  <metadata>
    <name><![CDATA[PF#344 Excercise Trail]]></name>
    <desc><![CDATA[]]></desc>
    <link href="http://www.alltrails.com">
      <text>AllTrails, LLC</text>
    </link>
    <bounds minlat="35.28181" minlon="-82.73189" maxlat="35.28611" maxlon="-82.72167"/>
  </metadata>
  <trk>
    <name><![CDATA[PF#344 Excercise Trail]]></name>
    <src>AllTrails</src>
    <trkseg>
      <trkpt lat="35.2821" lon="-82.72167">
        <ele>655.68</ele>
      </trkpt>
      <trkpt lat="35.2821" lon="-82.72167">
        <ele>655.68</ele>
      </trkpt>
      <trkpt lat="35.28209" lon="-82.72167">
        <ele>655.57</ele>
      </trkpt>
      <trkpt lat="35.28213" lon="-82.72184">
        <ele>656.0</ele>
      </trkpt>
      <trkpt lat="35.28217" lon="-82.72199">
        <ele>655.44</ele>
      </trkpt>
      <trkpt lat="35.28228" lon="-82.72226">
        <ele>654.32</ele>
      </trkpt>
      <trkpt lat="35.28247" lon="-82.72246">
        <ele>655.71</ele>
      </trkpt>
      <trkpt lat="35.28271" lon="-82.72274">
        <ele>656.0</ele>
      </trkpt>
      <trkpt lat="35.28291" lon="-82.72303">
        <ele>656.72</ele>
      </trkpt>
      <trkpt lat="35.283" lon="-82.7232">
        <ele>657.0</ele>
      </trkpt>
      <trkpt lat="35.28306" lon="-82.7235">
        <ele>657.0</ele>
      </trkpt>
      <trkpt lat="35.28316" lon="-82.7237">
        <ele>657.0</ele>
      </trkpt>
      <trkpt lat="35.28326" lon="-82.72382">
        <ele>657.0</ele>
      </trkpt>
      <trkpt lat="35.28341" lon="-82.7239">
        <ele>657.0</ele>
      </trkpt>
      <trkpt lat="35.28356" lon="-82.72389">
        <ele>657.55</ele>
      </trkpt>
      <trkpt lat="35.28368" lon="-82.72397">
        <ele>657.0</ele>
      </trkpt>
      <trkpt lat="35.28384" lon="-82.72426">
        <ele>657.0</ele>
      </trkpt>
      <trkpt lat="35.28403" lon="-82.72437">
        <ele>657.1</ele>
      </trkpt>
      <trkpt lat="35.28416" lon="-82.72442">
        <ele>657.3</ele>
      </trkpt>
      <trkpt lat="35.28422" lon="-82.72445">
        <ele>657.6</ele>
      </trkpt>
      <trkpt lat="35.2843" lon="-82.72457">
        <ele>658.0</ele>
      </trkpt>
      <trkpt lat="35.28438" lon="-82.7246">
        <ele>658.0</ele>
      </trkpt>
      <trkpt lat="35.2844" lon="-82.72464">
        <ele>658.0</ele>
      </trkpt>
      <trkpt lat="35.28445" lon="-82.72481">
        <ele>658.06</ele>
      </trkpt>
      <trkpt lat="35.28445" lon="-82.72481">
        <ele>658.06</ele>
      </trkpt>
      <trkpt lat="35.2845" lon="-82.72498">
        <ele>659.0</ele>
      </trkpt>
      <trkpt lat="35.28477" lon="-82.72511">
        <ele>661.43</ele>
      </trkpt>
      <trkpt lat="35.28497" lon="-82.72533">
        <ele>663.79</ele>
      </trkpt>
      <trkpt lat="35.28514" lon="-82.72571">
        <ele>665.69</ele>
      </trkpt>
      <trkpt lat="35.28525" lon="-82.72605">
        <ele>663.16</ele>
      </trkpt>
      <trkpt lat="35.28526" lon="-82.72628">
        <ele>661.95</ele>
      </trkpt>
      <trkpt lat="35.28525" lon="-82.72652">
        <ele>660.7</ele>
      </trkpt>
      <trkpt lat="35.28526" lon="-82.72672">
        <ele>660.34</ele>
      </trkpt>
      <trkpt lat="35.28535" lon="-82.72715">
        <ele>660.0</ele>
      </trkpt>
      <trkpt lat="35.28542" lon="-82.72745">
        <ele>660.0</ele>
      </trkpt>
      <trkpt lat="35.28549" lon="-82.7278">
        <ele>660.0</ele>
      </trkpt>
      <trkpt lat="35.28551" lon="-82.72806">
        <ele>660.0</ele>
      </trkpt>
      <trkpt lat="35.28547" lon="-82.72823">
        <ele>660.0</ele>
      </trkpt>
      <trkpt lat="35.28538" lon="-82.72859">
        <ele>660.0</ele>
      </trkpt>
      <trkpt lat="35.28536" lon="-82.72887">
        <ele>660.0</ele>
      </trkpt>
      <trkpt lat="35.28538" lon="-82.72901">
        <ele>660.07</ele>
      </trkpt>
      <trkpt lat="35.28542" lon="-82.72912">
        <ele>660.27</ele>
      </trkpt>
      <trkpt lat="35.28559" lon="-82.72936">
        <ele>661.34</ele>
      </trkpt>
      <trkpt lat="35.28567" lon="-82.72946">
        <ele>661.2</ele>
      </trkpt>
      <trkpt lat="35.28568" lon="-82.72967">
        <ele>660.71</ele>
      </trkpt>
      <trkpt lat="35.28573" lon="-82.72985">
        <ele>660.88</ele>
      </trkpt>
      <trkpt lat="35.28588" lon="-82.7301">
        <ele>661.0</ele>
      </trkpt>
      <trkpt lat="35.28598" lon="-82.73036">
        <ele>661.07</ele>
      </trkpt>
      <trkpt lat="35.2861" lon="-82.73099">
        <ele>661.88</ele>
      </trkpt>
      <trkpt lat="35.2861" lon="-82.73099">
        <ele>661.88</ele>
      </trkpt>
      <trkpt lat="35.28611" lon="-82.7312">
        <ele>661.99</ele>
      </trkpt>
      <trkpt lat="35.28604" lon="-82.73145">
        <ele>662.92</ele>
      </trkpt>
      <trkpt lat="35.28557" lon="-82.73189">
        <ele>660.91</ele>
      </trkpt>
      <trkpt lat="35.28544" lon="-82.7317">
        <ele>660.52</ele>
      </trkpt>
      <trkpt lat="35.28537" lon="-82.73146">
        <ele>659.77</ele>
      </trkpt>
      <trkpt lat="35.28523" lon="-82.73112">
        <ele>659.17</ele>
      </trkpt>
      <trkpt lat="35.2851" lon="-82.73089">
        <ele>659.76</ele>
      </trkpt>
      <trkpt lat="35.28493" lon="-82.73052">
        <ele>659.66</ele>
      </trkpt>
      <trkpt lat="35.28491" lon="-82.73049">
        <ele>659.95</ele>
      </trkpt>
      <trkpt lat="35.28491" lon="-82.73049">
        <ele>659.95</ele>
      </trkpt>
      <trkpt lat="35.2848" lon="-82.73037">
        <ele>660.0</ele>
      </trkpt>
      <trkpt lat="35.28469" lon="-82.73015">
        <ele>660.25</ele>
      </trkpt>
      <trkpt lat="35.28464" lon="-82.72992">
        <ele>660.0</ele>
      </trkpt>
      <trkpt lat="35.28468" lon="-82.72953">
        <ele>659.41</ele>
      </trkpt>
      <trkpt lat="35.28465" lon="-82.72933">
        <ele>659.16</ele>
      </trkpt>
      <trkpt lat="35.28451" lon="-82.72908">
        <ele>658.73</ele>
      </trkpt>
      <trkpt lat="35.28445" lon="-82.72891">
        <ele>658.88</ele>
      </trkpt>
      <trkpt lat="35.2844" lon="-82.7287">
        <ele>658.46</ele>
      </trkpt>
      <trkpt lat="35.2842" lon="-82.72806">
        <ele>657.3</ele>
      </trkpt>
      <trkpt lat="35.28409" lon="-82.72763">
        <ele>657.99</ele>
      </trkpt>
      <trkpt lat="35.28398" lon="-82.72711">
        <ele>657.79</ele>
      </trkpt>
      <trkpt lat="35.28387" lon="-82.72663">
        <ele>656.89</ele>
      </trkpt>
      <trkpt lat="35.28377" lon="-82.72633">
        <ele>656.83</ele>
      </trkpt>
      <trkpt lat="35.2837" lon="-82.72614">
        <ele>656.35</ele>
      </trkpt>
      <trkpt lat="35.28344" lon="-82.72578">
        <ele>656.91</ele>
      </trkpt>
      <trkpt lat="35.28342" lon="-82.72567">
        <ele>657.06</ele>
      </trkpt>
      <trkpt lat="35.28334" lon="-82.7255">
        <ele>656.88</ele>
      </trkpt>
      <trkpt lat="35.28325" lon="-82.72539">
        <ele>657.11</ele>
      </trkpt>
      <trkpt lat="35.28322" lon="-82.72528">
        <ele>657.22</ele>
      </trkpt>
      <trkpt lat="35.28309" lon="-82.72501">
        <ele>657.63</ele>
      </trkpt>
      <trkpt lat="35.28281" lon="-82.72445">
        <ele>657.0</ele>
      </trkpt>
      <trkpt lat="35.28273" lon="-82.72425">
        <ele>656.95</ele>
      </trkpt>
      <trkpt lat="35.28269" lon="-82.72403">
        <ele>656.42</ele>
      </trkpt>
      <trkpt lat="35.28266" lon="-82.7239">
        <ele>655.63</ele>
      </trkpt>
      <trkpt lat="35.28233" lon="-82.72318">
        <ele>656.02</ele>
      </trkpt>
      <trkpt lat="35.2822" lon="-82.72293">
        <ele>656.09</ele>
      </trkpt>
      <trkpt lat="35.282" lon="-82.72238">
        <ele>655.22</ele>
      </trkpt>
      <trkpt lat="35.28184" lon="-82.72205">
        <ele>656.0</ele>
      </trkpt>
      <trkpt lat="35.28181" lon="-82.72193">
        <ele>656.0</ele>
      </trkpt>
      <trkpt lat="35.28183" lon="-82.72178">
        <ele>656.0</ele>
      </trkpt>
      <trkpt lat="35.2821" lon="-82.72167">
        <ele>655.68</ele>
      </trkpt>
      <trkpt lat="35.2821" lon="-82.72167">
        <ele>655.68</ele>
      </trkpt>
      <trkpt lat="35.28209" lon="-82.72167">
        <ele>655.57</ele>
      </trkpt>
      <trkpt lat="35.28213" lon="-82.72184">
        <ele>656.0</ele>
      </trkpt>
      <trkpt lat="35.28217" lon="-82.72199">
        <ele>655.44</ele>
      </trkpt>
      <trkpt lat="35.28228" lon="-82.72226">
        <ele>654.32</ele>
      </trkpt>
      <trkpt lat="35.28247" lon="-82.72246">
        <ele>655.71</ele>
      </trkpt>
      <trkpt lat="35.28271" lon="-82.72274">
        <ele>656.0</ele>
      </trkpt>
      <trkpt lat="35.28291" lon="-82.72303">
        <ele>656.72</ele>
      </trkpt>
      <trkpt lat="35.283" lon="-82.7232">
        <ele>657.0</ele>
      </trkpt>
      <trkpt lat="35.28306" lon="-82.7235">
        <ele>657.0</ele>
      </trkpt>
      <trkpt lat="35.28316" lon="-82.7237">
        <ele>657.0</ele>
      </trkpt>
      <trkpt lat="35.28326" lon="-82.72382">
        <ele>657.0</ele>
      </trkpt>
      <trkpt lat="35.28341" lon="-82.7239">
        <ele>657.0</ele>
      </trkpt>
      <trkpt lat="35.28356" lon="-82.72389">
        <ele>657.55</ele>
      </trkpt>
      <trkpt lat="35.28368" lon="-82.72397">
        <ele>657.0</ele>
      </trkpt>
      <trkpt lat="35.28384" lon="-82.72426">
        <ele>657.0</ele>
      </trkpt>
      <trkpt lat="35.28403" lon="-82.72437">
        <ele>657.1</ele>
      </trkpt>
      <trkpt lat="35.28418" lon="-82.72443">
        <ele>657.28</ele>
      </trkpt>
    </trkseg>
  </trk>
</gpx>
