<?xml version="1.0"?>
<gpx xmlns="http://www.topografix.com/GPX/1/1" xmlns:xsi="http://www.w3.org/2001/XMLSchema-instance" version="1.1" creator="AllTrails.com" xsi:schemaLocation="http://www.topografix.com/GPX/1/1 http://www.topografix.com/GPX/1/1/gpx.xsd">
  <metadata>
    <name><![CDATA[Custom route — Spencer Gap Trail (#600)]]></name>
    <desc><![CDATA[]]></desc>
    <link href="http://www.alltrails.com">
      <text>AllTrails, LLC</text>
    </link>
    <bounds minlat="35.42052" minlon="-82.68334" maxlat="35.45515" maxlon="-82.66527"/>
  </metadata>
  <trk>
    <name><![CDATA[Custom route — Spencer Gap Trail (#600)]]></name>
    <src>AllTrails</src>
    <trkseg>
      <trkpt lat="35.44892" lon="-82.66563">
        <ele>866.52</ele>
      </trkpt>
      <trkpt lat="35.44891" lon="-82.66564">
        <ele>866.24</ele>
      </trkpt>
      <trkpt lat="35.44902" lon="-82.66553">
        <ele>868.71</ele>
      </trkpt>
      <trkpt lat="35.44908" lon="-82.66546">
        <ele>870.03</ele>
      </trkpt>
      <trkpt lat="35.44912" lon="-82.66539">
        <ele>871.87</ele>
      </trkpt>
      <trkpt lat="35.44916" lon="-82.66534">
        <ele>873.08</ele>
      </trkpt>
      <trkpt lat="35.4492" lon="-82.6653">
        <ele>873.56</ele>
      </trkpt>
      <trkpt lat="35.44926" lon="-82.66527">
        <ele>873.41</ele>
      </trkpt>
      <trkpt lat="35.44932" lon="-82.66529">
        <ele>872.03</ele>
      </trkpt>
      <trkpt lat="35.44934" lon="-82.66531">
        <ele>871.39</ele>
      </trkpt>
      <trkpt lat="35.44936" lon="-82.66538">
        <ele>870.45</ele>
      </trkpt>
      <trkpt lat="35.44936" lon="-82.66545">
        <ele>871.14</ele>
      </trkpt>
      <trkpt lat="35.44934" lon="-82.66553">
        <ele>871.25</ele>
      </trkpt>
      <trkpt lat="35.44932" lon="-82.66566">
        <ele>872.22</ele>
      </trkpt>
      <trkpt lat="35.44931" lon="-82.66574">
        <ele>873.63</ele>
      </trkpt>
      <trkpt lat="35.44934" lon="-82.6658">
        <ele>875.34</ele>
      </trkpt>
      <trkpt lat="35.44939" lon="-82.66586">
        <ele>877.58</ele>
      </trkpt>
      <trkpt lat="35.44944" lon="-82.66593">
        <ele>877.91</ele>
      </trkpt>
      <trkpt lat="35.44948" lon="-82.66601">
        <ele>878.28</ele>
      </trkpt>
      <trkpt lat="35.44948" lon="-82.66612">
        <ele>877.73</ele>
      </trkpt>
      <trkpt lat="35.44947" lon="-82.66621">
        <ele>879.1</ele>
      </trkpt>
      <trkpt lat="35.44945" lon="-82.66635">
        <ele>876.53</ele>
      </trkpt>
      <trkpt lat="35.44943" lon="-82.6665">
        <ele>881.61</ele>
      </trkpt>
      <trkpt lat="35.44944" lon="-82.6667">
        <ele>886.48</ele>
      </trkpt>
      <trkpt lat="35.44948" lon="-82.66683">
        <ele>887.15</ele>
      </trkpt>
      <trkpt lat="35.44951" lon="-82.66699">
        <ele>887.98</ele>
      </trkpt>
      <trkpt lat="35.44952" lon="-82.66713">
        <ele>888.08</ele>
      </trkpt>
      <trkpt lat="35.44953" lon="-82.66729">
        <ele>890.41</ele>
      </trkpt>
      <trkpt lat="35.44956" lon="-82.66739">
        <ele>893.01</ele>
      </trkpt>
      <trkpt lat="35.44962" lon="-82.66741">
        <ele>893.87</ele>
      </trkpt>
      <trkpt lat="35.4497" lon="-82.66739">
        <ele>895.85</ele>
      </trkpt>
      <trkpt lat="35.4498" lon="-82.66738">
        <ele>897.68</ele>
      </trkpt>
      <trkpt lat="35.44988" lon="-82.66739">
        <ele>898.4</ele>
      </trkpt>
      <trkpt lat="35.44999" lon="-82.66744">
        <ele>898.73</ele>
      </trkpt>
      <trkpt lat="35.45009" lon="-82.66754">
        <ele>899.59</ele>
      </trkpt>
      <trkpt lat="35.45016" lon="-82.66762">
        <ele>900.02</ele>
      </trkpt>
      <trkpt lat="35.45022" lon="-82.66765">
        <ele>900.52</ele>
      </trkpt>
      <trkpt lat="35.4503" lon="-82.66766">
        <ele>900.69</ele>
      </trkpt>
      <trkpt lat="35.45035" lon="-82.66769">
        <ele>900.01</ele>
      </trkpt>
      <trkpt lat="35.45038" lon="-82.66775">
        <ele>901.18</ele>
      </trkpt>
      <trkpt lat="35.45044" lon="-82.66786">
        <ele>903.12</ele>
      </trkpt>
      <trkpt lat="35.4505" lon="-82.66794">
        <ele>904.5</ele>
      </trkpt>
      <trkpt lat="35.45055" lon="-82.668">
        <ele>905.52</ele>
      </trkpt>
      <trkpt lat="35.45064" lon="-82.66807">
        <ele>906.27</ele>
      </trkpt>
      <trkpt lat="35.45073" lon="-82.66815">
        <ele>906.61</ele>
      </trkpt>
      <trkpt lat="35.45076" lon="-82.66821">
        <ele>906.57</ele>
      </trkpt>
      <trkpt lat="35.45079" lon="-82.6683">
        <ele>907.66</ele>
      </trkpt>
      <trkpt lat="35.45079" lon="-82.66841">
        <ele>906.83</ele>
      </trkpt>
      <trkpt lat="35.45079" lon="-82.66861">
        <ele>907.65</ele>
      </trkpt>
      <trkpt lat="35.4508" lon="-82.66869">
        <ele>908.2</ele>
      </trkpt>
      <trkpt lat="35.45081" lon="-82.66875">
        <ele>908.37</ele>
      </trkpt>
      <trkpt lat="35.45085" lon="-82.66881">
        <ele>909.37</ele>
      </trkpt>
      <trkpt lat="35.45089" lon="-82.66886">
        <ele>909.73</ele>
      </trkpt>
      <trkpt lat="35.45096" lon="-82.66888">
        <ele>910.6</ele>
      </trkpt>
      <trkpt lat="35.45106" lon="-82.66885">
        <ele>912.71</ele>
      </trkpt>
      <trkpt lat="35.45112" lon="-82.66883">
        <ele>914.0</ele>
      </trkpt>
      <trkpt lat="35.45121" lon="-82.66876">
        <ele>916.72</ele>
      </trkpt>
      <trkpt lat="35.45125" lon="-82.66867">
        <ele>917.86</ele>
      </trkpt>
      <trkpt lat="35.45127" lon="-82.66854">
        <ele>919.82</ele>
      </trkpt>
      <trkpt lat="35.45126" lon="-82.66846">
        <ele>921.02</ele>
      </trkpt>
      <trkpt lat="35.45124" lon="-82.66833">
        <ele>922.64</ele>
      </trkpt>
      <trkpt lat="35.45123" lon="-82.66826">
        <ele>923.51</ele>
      </trkpt>
      <trkpt lat="35.45125" lon="-82.66808">
        <ele>925.74</ele>
      </trkpt>
      <trkpt lat="35.45125" lon="-82.66796">
        <ele>927.56</ele>
      </trkpt>
      <trkpt lat="35.45127" lon="-82.66787">
        <ele>929.72</ele>
      </trkpt>
      <trkpt lat="35.45128" lon="-82.66772">
        <ele>932.07</ele>
      </trkpt>
      <trkpt lat="35.45132" lon="-82.66765">
        <ele>933.73</ele>
      </trkpt>
      <trkpt lat="35.45138" lon="-82.66758">
        <ele>935.94</ele>
      </trkpt>
      <trkpt lat="35.45149" lon="-82.6675">
        <ele>939.09</ele>
      </trkpt>
      <trkpt lat="35.4516" lon="-82.66747">
        <ele>941.02</ele>
      </trkpt>
      <trkpt lat="35.45176" lon="-82.66746">
        <ele>943.74</ele>
      </trkpt>
      <trkpt lat="35.45185" lon="-82.66746">
        <ele>945.69</ele>
      </trkpt>
      <trkpt lat="35.45195" lon="-82.66744">
        <ele>947.94</ele>
      </trkpt>
      <trkpt lat="35.45201" lon="-82.66739">
        <ele>949.75</ele>
      </trkpt>
      <trkpt lat="35.45201" lon="-82.66739">
        <ele>949.75</ele>
      </trkpt>
      <trkpt lat="35.45208" lon="-82.66734">
        <ele>951.91</ele>
      </trkpt>
      <trkpt lat="35.45223" lon="-82.6672">
        <ele>955.9</ele>
      </trkpt>
      <trkpt lat="35.45229" lon="-82.66722">
        <ele>954.38</ele>
      </trkpt>
      <trkpt lat="35.45235" lon="-82.66727">
        <ele>953.41</ele>
      </trkpt>
      <trkpt lat="35.45241" lon="-82.66734">
        <ele>953.3</ele>
      </trkpt>
      <trkpt lat="35.45249" lon="-82.66741">
        <ele>955.41</ele>
      </trkpt>
      <trkpt lat="35.45264" lon="-82.66747">
        <ele>958.0</ele>
      </trkpt>
      <trkpt lat="35.45271" lon="-82.66754">
        <ele>957.94</ele>
      </trkpt>
      <trkpt lat="35.45284" lon="-82.66771">
        <ele>959.48</ele>
      </trkpt>
      <trkpt lat="35.45292" lon="-82.66775">
        <ele>960.67</ele>
      </trkpt>
      <trkpt lat="35.45303" lon="-82.66774">
        <ele>962.11</ele>
      </trkpt>
      <trkpt lat="35.45315" lon="-82.6677">
        <ele>963.5</ele>
      </trkpt>
      <trkpt lat="35.45322" lon="-82.66766">
        <ele>964.25</ele>
      </trkpt>
      <trkpt lat="35.45331" lon="-82.66764">
        <ele>964.95</ele>
      </trkpt>
      <trkpt lat="35.45339" lon="-82.66768">
        <ele>963.84</ele>
      </trkpt>
      <trkpt lat="35.45347" lon="-82.66772">
        <ele>964.12</ele>
      </trkpt>
      <trkpt lat="35.45356" lon="-82.66778">
        <ele>964.27</ele>
      </trkpt>
      <trkpt lat="35.45362" lon="-82.66777">
        <ele>966.34</ele>
      </trkpt>
      <trkpt lat="35.45369" lon="-82.66773">
        <ele>968.5</ele>
      </trkpt>
      <trkpt lat="35.45385" lon="-82.66765">
        <ele>968.16</ele>
      </trkpt>
      <trkpt lat="35.4539" lon="-82.66773">
        <ele>963.96</ele>
      </trkpt>
      <trkpt lat="35.45392" lon="-82.66784">
        <ele>964.46</ele>
      </trkpt>
      <trkpt lat="35.4539" lon="-82.66798">
        <ele>963.7</ele>
      </trkpt>
      <trkpt lat="35.45396" lon="-82.66812">
        <ele>965.61</ele>
      </trkpt>
      <trkpt lat="35.45398" lon="-82.66828">
        <ele>965.94</ele>
      </trkpt>
      <trkpt lat="35.454" lon="-82.66843">
        <ele>966.95</ele>
      </trkpt>
      <trkpt lat="35.45407" lon="-82.66859">
        <ele>968.02</ele>
      </trkpt>
      <trkpt lat="35.45409" lon="-82.66873">
        <ele>965.9</ele>
      </trkpt>
      <trkpt lat="35.45417" lon="-82.66879">
        <ele>966.28</ele>
      </trkpt>
      <trkpt lat="35.45422" lon="-82.6688">
        <ele>967.03</ele>
      </trkpt>
      <trkpt lat="35.45428" lon="-82.66884">
        <ele>966.81</ele>
      </trkpt>
      <trkpt lat="35.45447" lon="-82.66895">
        <ele>967.23</ele>
      </trkpt>
      <trkpt lat="35.45452" lon="-82.66906">
        <ele>967.48</ele>
      </trkpt>
      <trkpt lat="35.45451" lon="-82.66913">
        <ele>968.33</ele>
      </trkpt>
      <trkpt lat="35.45445" lon="-82.6692">
        <ele>967.92</ele>
      </trkpt>
      <trkpt lat="35.45437" lon="-82.66936">
        <ele>969.05</ele>
      </trkpt>
      <trkpt lat="35.45432" lon="-82.66945">
        <ele>970.17</ele>
      </trkpt>
      <trkpt lat="35.45425" lon="-82.66953">
        <ele>971.4</ele>
      </trkpt>
      <trkpt lat="35.4542" lon="-82.66962">
        <ele>973.34</ele>
      </trkpt>
      <trkpt lat="35.45416" lon="-82.66971">
        <ele>974.52</ele>
      </trkpt>
      <trkpt lat="35.45416" lon="-82.6698">
        <ele>975.62</ele>
      </trkpt>
      <trkpt lat="35.45417" lon="-82.66988">
        <ele>976.11</ele>
      </trkpt>
      <trkpt lat="35.45422" lon="-82.66996">
        <ele>977.16</ele>
      </trkpt>
      <trkpt lat="35.4543" lon="-82.67003">
        <ele>979.0</ele>
      </trkpt>
      <trkpt lat="35.45444" lon="-82.67009">
        <ele>982.88</ele>
      </trkpt>
      <trkpt lat="35.45467" lon="-82.67015">
        <ele>987.63</ele>
      </trkpt>
      <trkpt lat="35.45486" lon="-82.67028">
        <ele>989.92</ele>
      </trkpt>
      <trkpt lat="35.45494" lon="-82.67038">
        <ele>988.57</ele>
      </trkpt>
      <trkpt lat="35.45496" lon="-82.67047">
        <ele>988.27</ele>
      </trkpt>
      <trkpt lat="35.45493" lon="-82.67066">
        <ele>988.76</ele>
      </trkpt>
      <trkpt lat="35.45494" lon="-82.67075">
        <ele>989.37</ele>
      </trkpt>
      <trkpt lat="35.45496" lon="-82.67085">
        <ele>989.52</ele>
      </trkpt>
      <trkpt lat="35.45503" lon="-82.67107">
        <ele>990.74</ele>
      </trkpt>
      <trkpt lat="35.4551" lon="-82.67127">
        <ele>991.6</ele>
      </trkpt>
      <trkpt lat="35.45513" lon="-82.67139">
        <ele>992.2</ele>
      </trkpt>
      <trkpt lat="35.45515" lon="-82.67151">
        <ele>991.98</ele>
      </trkpt>
      <trkpt lat="35.45514" lon="-82.67161">
        <ele>992.41</ele>
      </trkpt>
      <trkpt lat="35.45511" lon="-82.67168">
        <ele>992.49</ele>
      </trkpt>
      <trkpt lat="35.45506" lon="-82.67173">
        <ele>992.33</ele>
      </trkpt>
      <trkpt lat="35.45499" lon="-82.67181">
        <ele>993.05</ele>
      </trkpt>
      <trkpt lat="35.45494" lon="-82.67176">
        <ele>991.37</ele>
      </trkpt>
      <trkpt lat="35.4548" lon="-82.6718">
        <ele>992.32</ele>
      </trkpt>
      <trkpt lat="35.45465" lon="-82.67186">
        <ele>995.84</ele>
      </trkpt>
      <trkpt lat="35.45451" lon="-82.67188">
        <ele>998.0</ele>
      </trkpt>
      <trkpt lat="35.45425" lon="-82.67192">
        <ele>999.94</ele>
      </trkpt>
      <trkpt lat="35.45403" lon="-82.67194">
        <ele>1001.28</ele>
      </trkpt>
      <trkpt lat="35.45382" lon="-82.67193">
        <ele>1003.34</ele>
      </trkpt>
      <trkpt lat="35.45357" lon="-82.67195">
        <ele>1005.66</ele>
      </trkpt>
      <trkpt lat="35.45334" lon="-82.67195">
        <ele>1006.24</ele>
      </trkpt>
      <trkpt lat="35.45322" lon="-82.672">
        <ele>1007.58</ele>
      </trkpt>
      <trkpt lat="35.45314" lon="-82.67209">
        <ele>1008.97</ele>
      </trkpt>
      <trkpt lat="35.45309" lon="-82.6722">
        <ele>1009.03</ele>
      </trkpt>
      <trkpt lat="35.45307" lon="-82.67236">
        <ele>1009.21</ele>
      </trkpt>
      <trkpt lat="35.45307" lon="-82.67253">
        <ele>1008.78</ele>
      </trkpt>
      <trkpt lat="35.45307" lon="-82.6727">
        <ele>1008.62</ele>
      </trkpt>
      <trkpt lat="35.4531" lon="-82.67282">
        <ele>1008.73</ele>
      </trkpt>
      <trkpt lat="35.45313" lon="-82.67293">
        <ele>1008.45</ele>
      </trkpt>
      <trkpt lat="35.45313" lon="-82.67308">
        <ele>1007.63</ele>
      </trkpt>
      <trkpt lat="35.45313" lon="-82.6732">
        <ele>1007.74</ele>
      </trkpt>
      <trkpt lat="35.45314" lon="-82.67334">
        <ele>1008.47</ele>
      </trkpt>
      <trkpt lat="35.45317" lon="-82.67344">
        <ele>1010.14</ele>
      </trkpt>
      <trkpt lat="35.45319" lon="-82.6736">
        <ele>1009.45</ele>
      </trkpt>
      <trkpt lat="35.45323" lon="-82.67369">
        <ele>1009.72</ele>
      </trkpt>
      <trkpt lat="35.45329" lon="-82.6738">
        <ele>1010.56</ele>
      </trkpt>
      <trkpt lat="35.45334" lon="-82.67389">
        <ele>1011.41</ele>
      </trkpt>
      <trkpt lat="35.45337" lon="-82.67394">
        <ele>1012.05</ele>
      </trkpt>
      <trkpt lat="35.45337" lon="-82.67394">
        <ele>1012.05</ele>
      </trkpt>
      <trkpt lat="35.45344" lon="-82.67406">
        <ele>1012.24</ele>
      </trkpt>
      <trkpt lat="35.4535" lon="-82.6742">
        <ele>1011.57</ele>
      </trkpt>
      <trkpt lat="35.45357" lon="-82.67431">
        <ele>1014.24</ele>
      </trkpt>
      <trkpt lat="35.45364" lon="-82.67447">
        <ele>1015.51</ele>
      </trkpt>
      <trkpt lat="35.45365" lon="-82.67456">
        <ele>1014.6</ele>
      </trkpt>
      <trkpt lat="35.45365" lon="-82.67463">
        <ele>1013.1</ele>
      </trkpt>
      <trkpt lat="35.4536" lon="-82.67466">
        <ele>1010.44</ele>
      </trkpt>
      <trkpt lat="35.45355" lon="-82.67471">
        <ele>1009.33</ele>
      </trkpt>
      <trkpt lat="35.45347" lon="-82.67474">
        <ele>1008.39</ele>
      </trkpt>
      <trkpt lat="35.45339" lon="-82.67476">
        <ele>1007.65</ele>
      </trkpt>
      <trkpt lat="35.45321" lon="-82.67478">
        <ele>1007.74</ele>
      </trkpt>
      <trkpt lat="35.45303" lon="-82.67479">
        <ele>1008.39</ele>
      </trkpt>
      <trkpt lat="35.45279" lon="-82.67481">
        <ele>1009.69</ele>
      </trkpt>
      <trkpt lat="35.45261" lon="-82.67484">
        <ele>1009.77</ele>
      </trkpt>
      <trkpt lat="35.45245" lon="-82.6749">
        <ele>1011.98</ele>
      </trkpt>
      <trkpt lat="35.45234" lon="-82.67492">
        <ele>1011.09</ele>
      </trkpt>
      <trkpt lat="35.45222" lon="-82.67498">
        <ele>1011.9</ele>
      </trkpt>
      <trkpt lat="35.45217" lon="-82.67504">
        <ele>1013.92</ele>
      </trkpt>
      <trkpt lat="35.45211" lon="-82.67509">
        <ele>1014.49</ele>
      </trkpt>
      <trkpt lat="35.45207" lon="-82.67515">
        <ele>1014.95</ele>
      </trkpt>
      <trkpt lat="35.45203" lon="-82.67525">
        <ele>1015.47</ele>
      </trkpt>
      <trkpt lat="35.45199" lon="-82.67535">
        <ele>1015.64</ele>
      </trkpt>
      <trkpt lat="35.45196" lon="-82.67551">
        <ele>1015.09</ele>
      </trkpt>
      <trkpt lat="35.45198" lon="-82.67564">
        <ele>1015.24</ele>
      </trkpt>
      <trkpt lat="35.45202" lon="-82.67575">
        <ele>1015.16</ele>
      </trkpt>
      <trkpt lat="35.4521" lon="-82.67598">
        <ele>1015.27</ele>
      </trkpt>
      <trkpt lat="35.45224" lon="-82.67636">
        <ele>1014.95</ele>
      </trkpt>
      <trkpt lat="35.45235" lon="-82.67664">
        <ele>1013.72</ele>
      </trkpt>
      <trkpt lat="35.45243" lon="-82.67682">
        <ele>1013.66</ele>
      </trkpt>
      <trkpt lat="35.45252" lon="-82.67698">
        <ele>1015.01</ele>
      </trkpt>
      <trkpt lat="35.45264" lon="-82.67718">
        <ele>1014.68</ele>
      </trkpt>
      <trkpt lat="35.45266" lon="-82.67728">
        <ele>1013.39</ele>
      </trkpt>
      <trkpt lat="35.45267" lon="-82.67738">
        <ele>1011.82</ele>
      </trkpt>
      <trkpt lat="35.45257" lon="-82.67748">
        <ele>1009.84</ele>
      </trkpt>
      <trkpt lat="35.45249" lon="-82.67759">
        <ele>1011.56</ele>
      </trkpt>
      <trkpt lat="35.45243" lon="-82.67768">
        <ele>1012.79</ele>
      </trkpt>
      <trkpt lat="35.45235" lon="-82.67787">
        <ele>1014.51</ele>
      </trkpt>
      <trkpt lat="35.45234" lon="-82.67803">
        <ele>1015.28</ele>
      </trkpt>
      <trkpt lat="35.45237" lon="-82.67819">
        <ele>1015.26</ele>
      </trkpt>
      <trkpt lat="35.45237" lon="-82.67831">
        <ele>1014.38</ele>
      </trkpt>
      <trkpt lat="35.45234" lon="-82.67853">
        <ele>1014.09</ele>
      </trkpt>
      <trkpt lat="35.45235" lon="-82.67875">
        <ele>1013.59</ele>
      </trkpt>
      <trkpt lat="35.4524" lon="-82.67914">
        <ele>1013.86</ele>
      </trkpt>
      <trkpt lat="35.45242" lon="-82.6794">
        <ele>1014.16</ele>
      </trkpt>
      <trkpt lat="35.45242" lon="-82.67958">
        <ele>1013.62</ele>
      </trkpt>
      <trkpt lat="35.45241" lon="-82.6797">
        <ele>1013.87</ele>
      </trkpt>
      <trkpt lat="35.45241" lon="-82.6797">
        <ele>1013.87</ele>
      </trkpt>
      <trkpt lat="35.45235" lon="-82.67972">
        <ele>1011.5</ele>
      </trkpt>
      <trkpt lat="35.45224" lon="-82.67969">
        <ele>1009.05</ele>
      </trkpt>
      <trkpt lat="35.45211" lon="-82.67965">
        <ele>1009.52</ele>
      </trkpt>
      <trkpt lat="35.452" lon="-82.6796">
        <ele>1008.8</ele>
      </trkpt>
      <trkpt lat="35.45189" lon="-82.6796">
        <ele>1010.18</ele>
      </trkpt>
      <trkpt lat="35.4517" lon="-82.67955">
        <ele>1010.34</ele>
      </trkpt>
      <trkpt lat="35.45156" lon="-82.67952">
        <ele>1010.23</ele>
      </trkpt>
      <trkpt lat="35.45129" lon="-82.67949">
        <ele>1012.0</ele>
      </trkpt>
      <trkpt lat="35.45098" lon="-82.67943">
        <ele>1012.79</ele>
      </trkpt>
      <trkpt lat="35.45071" lon="-82.67935">
        <ele>1012.25</ele>
      </trkpt>
      <trkpt lat="35.45049" lon="-82.67931">
        <ele>1012.19</ele>
      </trkpt>
      <trkpt lat="35.45029" lon="-82.67929">
        <ele>1013.2</ele>
      </trkpt>
      <trkpt lat="35.45019" lon="-82.67926">
        <ele>1012.98</ele>
      </trkpt>
      <trkpt lat="35.45004" lon="-82.67916">
        <ele>1013.02</ele>
      </trkpt>
      <trkpt lat="35.4499" lon="-82.67905">
        <ele>1014.14</ele>
      </trkpt>
      <trkpt lat="35.44972" lon="-82.67897">
        <ele>1016.51</ele>
      </trkpt>
      <trkpt lat="35.44954" lon="-82.6789">
        <ele>1015.12</ele>
      </trkpt>
      <trkpt lat="35.44948" lon="-82.67902">
        <ele>1013.48</ele>
      </trkpt>
      <trkpt lat="35.44947" lon="-82.6791">
        <ele>1011.34</ele>
      </trkpt>
      <trkpt lat="35.44952" lon="-82.67936">
        <ele>1007.54</ele>
      </trkpt>
      <trkpt lat="35.44953" lon="-82.67955">
        <ele>1005.19</ele>
      </trkpt>
      <trkpt lat="35.44955" lon="-82.6797">
        <ele>1003.21</ele>
      </trkpt>
      <trkpt lat="35.44967" lon="-82.67998">
        <ele>1001.27</ele>
      </trkpt>
      <trkpt lat="35.4497" lon="-82.68011">
        <ele>998.66</ele>
      </trkpt>
      <trkpt lat="35.44969" lon="-82.68016">
        <ele>997.15</ele>
      </trkpt>
      <trkpt lat="35.44964" lon="-82.68018">
        <ele>994.56</ele>
      </trkpt>
      <trkpt lat="35.44956" lon="-82.68012">
        <ele>992.4</ele>
      </trkpt>
      <trkpt lat="35.44933" lon="-82.67967">
        <ele>988.85</ele>
      </trkpt>
      <trkpt lat="35.44925" lon="-82.67954">
        <ele>986.66</ele>
      </trkpt>
      <trkpt lat="35.44912" lon="-82.67944">
        <ele>984.18</ele>
      </trkpt>
      <trkpt lat="35.449" lon="-82.67942">
        <ele>983.04</ele>
      </trkpt>
      <trkpt lat="35.44884" lon="-82.67947">
        <ele>981.55</ele>
      </trkpt>
      <trkpt lat="35.44854" lon="-82.67949">
        <ele>976.15</ele>
      </trkpt>
      <trkpt lat="35.44827" lon="-82.67964">
        <ele>969.24</ele>
      </trkpt>
      <trkpt lat="35.44795" lon="-82.67985">
        <ele>964.1</ele>
      </trkpt>
      <trkpt lat="35.4478" lon="-82.6799">
        <ele>961.4</ele>
      </trkpt>
      <trkpt lat="35.44764" lon="-82.67992">
        <ele>959.46</ele>
      </trkpt>
      <trkpt lat="35.44757" lon="-82.67996">
        <ele>958.22</ele>
      </trkpt>
      <trkpt lat="35.44752" lon="-82.68">
        <ele>957.57</ele>
      </trkpt>
      <trkpt lat="35.4473" lon="-82.68031">
        <ele>953.28</ele>
      </trkpt>
      <trkpt lat="35.4472" lon="-82.68042">
        <ele>951.63</ele>
      </trkpt>
      <trkpt lat="35.44692" lon="-82.68063">
        <ele>947.85</ele>
      </trkpt>
      <trkpt lat="35.44682" lon="-82.68069">
        <ele>946.64</ele>
      </trkpt>
      <trkpt lat="35.44671" lon="-82.68073">
        <ele>944.82</ele>
      </trkpt>
      <trkpt lat="35.44642" lon="-82.6807">
        <ele>938.33</ele>
      </trkpt>
      <trkpt lat="35.44626" lon="-82.68064">
        <ele>935.57</ele>
      </trkpt>
      <trkpt lat="35.44575" lon="-82.68051">
        <ele>931.17</ele>
      </trkpt>
      <trkpt lat="35.44575" lon="-82.68051">
        <ele>931.17</ele>
      </trkpt>
      <trkpt lat="35.4456" lon="-82.68047">
        <ele>929.14</ele>
      </trkpt>
      <trkpt lat="35.44542" lon="-82.68039">
        <ele>925.87</ele>
      </trkpt>
      <trkpt lat="35.44524" lon="-82.68025">
        <ele>926.56</ele>
      </trkpt>
      <trkpt lat="35.44497" lon="-82.68015">
        <ele>922.14</ele>
      </trkpt>
      <trkpt lat="35.44491" lon="-82.68007">
        <ele>920.63</ele>
      </trkpt>
      <trkpt lat="35.44488" lon="-82.67993">
        <ele>921.2</ele>
      </trkpt>
      <trkpt lat="35.44482" lon="-82.67983">
        <ele>919.12</ele>
      </trkpt>
      <trkpt lat="35.44469" lon="-82.67967">
        <ele>919.34</ele>
      </trkpt>
      <trkpt lat="35.44462" lon="-82.67965">
        <ele>919.65</ele>
      </trkpt>
      <trkpt lat="35.4443" lon="-82.67967">
        <ele>919.94</ele>
      </trkpt>
      <trkpt lat="35.44401" lon="-82.67978">
        <ele>918.82</ele>
      </trkpt>
      <trkpt lat="35.4439" lon="-82.67978">
        <ele>919.13</ele>
      </trkpt>
      <trkpt lat="35.44358" lon="-82.67965">
        <ele>917.05</ele>
      </trkpt>
      <trkpt lat="35.44353" lon="-82.67965">
        <ele>916.93</ele>
      </trkpt>
      <trkpt lat="35.4433" lon="-82.67971">
        <ele>916.56</ele>
      </trkpt>
      <trkpt lat="35.44322" lon="-82.67975">
        <ele>916.47</ele>
      </trkpt>
      <trkpt lat="35.44296" lon="-82.67992">
        <ele>916.6</ele>
      </trkpt>
      <trkpt lat="35.44283" lon="-82.67998">
        <ele>915.34</ele>
      </trkpt>
      <trkpt lat="35.44275" lon="-82.67998">
        <ele>914.62</ele>
      </trkpt>
      <trkpt lat="35.44269" lon="-82.67994">
        <ele>913.75</ele>
      </trkpt>
      <trkpt lat="35.44263" lon="-82.67983">
        <ele>911.62</ele>
      </trkpt>
      <trkpt lat="35.44259" lon="-82.67969">
        <ele>911.95</ele>
      </trkpt>
      <trkpt lat="35.44254" lon="-82.67958">
        <ele>913.03</ele>
      </trkpt>
      <trkpt lat="35.44248" lon="-82.67953">
        <ele>912.3</ele>
      </trkpt>
      <trkpt lat="35.44241" lon="-82.67953">
        <ele>912.3</ele>
      </trkpt>
      <trkpt lat="35.44239" lon="-82.67957">
        <ele>910.27</ele>
      </trkpt>
      <trkpt lat="35.44245" lon="-82.67974">
        <ele>905.46</ele>
      </trkpt>
      <trkpt lat="35.44244" lon="-82.68011">
        <ele>902.38</ele>
      </trkpt>
      <trkpt lat="35.44246" lon="-82.68019">
        <ele>901.74</ele>
      </trkpt>
      <trkpt lat="35.4425" lon="-82.68029">
        <ele>901.6</ele>
      </trkpt>
      <trkpt lat="35.44262" lon="-82.68039">
        <ele>900.45</ele>
      </trkpt>
      <trkpt lat="35.4427" lon="-82.68042">
        <ele>899.86</ele>
      </trkpt>
      <trkpt lat="35.44292" lon="-82.68045">
        <ele>898.35</ele>
      </trkpt>
      <trkpt lat="35.44302" lon="-82.68044">
        <ele>896.05</ele>
      </trkpt>
      <trkpt lat="35.44326" lon="-82.6803">
        <ele>893.66</ele>
      </trkpt>
      <trkpt lat="35.44336" lon="-82.68026">
        <ele>892.29</ele>
      </trkpt>
      <trkpt lat="35.44342" lon="-82.68025">
        <ele>891.96</ele>
      </trkpt>
      <trkpt lat="35.4435" lon="-82.68028">
        <ele>890.15</ele>
      </trkpt>
      <trkpt lat="35.44355" lon="-82.68036">
        <ele>888.9</ele>
      </trkpt>
      <trkpt lat="35.44358" lon="-82.68045">
        <ele>887.32</ele>
      </trkpt>
      <trkpt lat="35.44358" lon="-82.68053">
        <ele>885.79</ele>
      </trkpt>
      <trkpt lat="35.44358" lon="-82.68068">
        <ele>884.43</ele>
      </trkpt>
      <trkpt lat="35.44352" lon="-82.68099">
        <ele>881.74</ele>
      </trkpt>
      <trkpt lat="35.44353" lon="-82.6811">
        <ele>883.03</ele>
      </trkpt>
      <trkpt lat="35.4436" lon="-82.68118">
        <ele>883.14</ele>
      </trkpt>
      <trkpt lat="35.44369" lon="-82.68119">
        <ele>882.42</ele>
      </trkpt>
      <trkpt lat="35.44385" lon="-82.68114">
        <ele>881.8</ele>
      </trkpt>
      <trkpt lat="35.44393" lon="-82.68116">
        <ele>880.29</ele>
      </trkpt>
      <trkpt lat="35.44403" lon="-82.68124">
        <ele>879.84</ele>
      </trkpt>
      <trkpt lat="35.44407" lon="-82.6813">
        <ele>879.92</ele>
      </trkpt>
      <trkpt lat="35.44408" lon="-82.68138">
        <ele>879.17</ele>
      </trkpt>
      <trkpt lat="35.44401" lon="-82.68144">
        <ele>877.59</ele>
      </trkpt>
      <trkpt lat="35.44386" lon="-82.68145">
        <ele>874.89</ele>
      </trkpt>
      <trkpt lat="35.44362" lon="-82.68154">
        <ele>874.64</ele>
      </trkpt>
      <trkpt lat="35.44352" lon="-82.68155">
        <ele>873.79</ele>
      </trkpt>
      <trkpt lat="35.44337" lon="-82.68148">
        <ele>873.22</ele>
      </trkpt>
      <trkpt lat="35.44331" lon="-82.68143">
        <ele>872.22</ele>
      </trkpt>
      <trkpt lat="35.4432" lon="-82.68119">
        <ele>871.16</ele>
      </trkpt>
      <trkpt lat="35.44313" lon="-82.6811">
        <ele>869.26</ele>
      </trkpt>
      <trkpt lat="35.44305" lon="-82.68108">
        <ele>870.17</ele>
      </trkpt>
      <trkpt lat="35.44289" lon="-82.68121">
        <ele>869.67</ele>
      </trkpt>
      <trkpt lat="35.44276" lon="-82.68127">
        <ele>868.8</ele>
      </trkpt>
      <trkpt lat="35.4426" lon="-82.68133">
        <ele>866.91</ele>
      </trkpt>
      <trkpt lat="35.44235" lon="-82.68151">
        <ele>864.69</ele>
      </trkpt>
      <trkpt lat="35.4421" lon="-82.68156">
        <ele>861.62</ele>
      </trkpt>
      <trkpt lat="35.44192" lon="-82.68151">
        <ele>856.39</ele>
      </trkpt>
      <trkpt lat="35.44184" lon="-82.68152">
        <ele>854.38</ele>
      </trkpt>
      <trkpt lat="35.44178" lon="-82.68157">
        <ele>853.23</ele>
      </trkpt>
      <trkpt lat="35.44168" lon="-82.6817">
        <ele>850.24</ele>
      </trkpt>
      <trkpt lat="35.44153" lon="-82.68183">
        <ele>847.18</ele>
      </trkpt>
      <trkpt lat="35.44141" lon="-82.68189">
        <ele>846.99</ele>
      </trkpt>
      <trkpt lat="35.44113" lon="-82.68198">
        <ele>841.82</ele>
      </trkpt>
      <trkpt lat="35.44113" lon="-82.68203">
        <ele>841.28</ele>
      </trkpt>
      <trkpt lat="35.44113" lon="-82.68216">
        <ele>840.39</ele>
      </trkpt>
      <trkpt lat="35.44097" lon="-82.68217">
        <ele>839.44</ele>
      </trkpt>
      <trkpt lat="35.44081" lon="-82.68216">
        <ele>838.33</ele>
      </trkpt>
      <trkpt lat="35.44055" lon="-82.68224">
        <ele>837.14</ele>
      </trkpt>
      <trkpt lat="35.44029" lon="-82.6823">
        <ele>835.97</ele>
      </trkpt>
      <trkpt lat="35.43989" lon="-82.68228">
        <ele>833.51</ele>
      </trkpt>
      <trkpt lat="35.43962" lon="-82.68231">
        <ele>832.01</ele>
      </trkpt>
      <trkpt lat="35.43934" lon="-82.68239">
        <ele>830.87</ele>
      </trkpt>
      <trkpt lat="35.43921" lon="-82.68251">
        <ele>830.47</ele>
      </trkpt>
      <trkpt lat="35.43906" lon="-82.68256">
        <ele>828.95</ele>
      </trkpt>
      <trkpt lat="35.43892" lon="-82.68263">
        <ele>828.34</ele>
      </trkpt>
      <trkpt lat="35.43872" lon="-82.68271">
        <ele>827.13</ele>
      </trkpt>
      <trkpt lat="35.43847" lon="-82.68281">
        <ele>825.82</ele>
      </trkpt>
      <trkpt lat="35.43825" lon="-82.68278">
        <ele>824.17</ele>
      </trkpt>
      <trkpt lat="35.43803" lon="-82.68278">
        <ele>825.07</ele>
      </trkpt>
      <trkpt lat="35.43779" lon="-82.68267">
        <ele>823.02</ele>
      </trkpt>
      <trkpt lat="35.43766" lon="-82.68263">
        <ele>822.81</ele>
      </trkpt>
      <trkpt lat="35.43766" lon="-82.68262">
        <ele>822.59</ele>
      </trkpt>
      <trkpt lat="35.43763" lon="-82.68261">
        <ele>822.38</ele>
      </trkpt>
      <trkpt lat="35.43748" lon="-82.68259">
        <ele>821.02</ele>
      </trkpt>
      <trkpt lat="35.4371" lon="-82.6826">
        <ele>821.21</ele>
      </trkpt>
      <trkpt lat="35.43671" lon="-82.68281">
        <ele>821.02</ele>
      </trkpt>
      <trkpt lat="35.43654" lon="-82.68296">
        <ele>818.7</ele>
      </trkpt>
      <trkpt lat="35.43631" lon="-82.68301">
        <ele>816.56</ele>
      </trkpt>
      <trkpt lat="35.43605" lon="-82.68309">
        <ele>815.21</ele>
      </trkpt>
      <trkpt lat="35.43587" lon="-82.68314">
        <ele>814.09</ele>
      </trkpt>
      <trkpt lat="35.43565" lon="-82.68319">
        <ele>813.02</ele>
      </trkpt>
      <trkpt lat="35.43559" lon="-82.68326">
        <ele>812.5</ele>
      </trkpt>
      <trkpt lat="35.43544" lon="-82.68321">
        <ele>811.75</ele>
      </trkpt>
      <trkpt lat="35.43526" lon="-82.68327">
        <ele>811.07</ele>
      </trkpt>
      <trkpt lat="35.43502" lon="-82.68334">
        <ele>811.71</ele>
      </trkpt>
      <trkpt lat="35.43478" lon="-82.68334">
        <ele>813.86</ele>
      </trkpt>
      <trkpt lat="35.43464" lon="-82.68332">
        <ele>814.43</ele>
      </trkpt>
      <trkpt lat="35.43449" lon="-82.6833">
        <ele>814.39</ele>
      </trkpt>
      <trkpt lat="35.43429" lon="-82.6833">
        <ele>813.05</ele>
      </trkpt>
      <trkpt lat="35.43408" lon="-82.68328">
        <ele>812.22</ele>
      </trkpt>
      <trkpt lat="35.43385" lon="-82.68322">
        <ele>810.7</ele>
      </trkpt>
      <trkpt lat="35.43333" lon="-82.6832">
        <ele>804.86</ele>
      </trkpt>
      <trkpt lat="35.43316" lon="-82.68314">
        <ele>806.44</ele>
      </trkpt>
      <trkpt lat="35.43303" lon="-82.68308">
        <ele>808.13</ele>
      </trkpt>
      <trkpt lat="35.43289" lon="-82.68305">
        <ele>805.82</ele>
      </trkpt>
      <trkpt lat="35.43278" lon="-82.68296">
        <ele>806.08</ele>
      </trkpt>
      <trkpt lat="35.4326" lon="-82.68291">
        <ele>803.65</ele>
      </trkpt>
      <trkpt lat="35.43248" lon="-82.68262">
        <ele>802.49</ele>
      </trkpt>
      <trkpt lat="35.43229" lon="-82.68243">
        <ele>802.22</ele>
      </trkpt>
      <trkpt lat="35.43205" lon="-82.68225">
        <ele>801.78</ele>
      </trkpt>
      <trkpt lat="35.43175" lon="-82.6822">
        <ele>801.16</ele>
      </trkpt>
      <trkpt lat="35.43161" lon="-82.68212">
        <ele>802.21</ele>
      </trkpt>
      <trkpt lat="35.43123" lon="-82.6821">
        <ele>800.92</ele>
      </trkpt>
      <trkpt lat="35.43115" lon="-82.68206">
        <ele>801.07</ele>
      </trkpt>
      <trkpt lat="35.43093" lon="-82.68205">
        <ele>798.8</ele>
      </trkpt>
      <trkpt lat="35.43056" lon="-82.6819">
        <ele>798.01</ele>
      </trkpt>
      <trkpt lat="35.43048" lon="-82.68183">
        <ele>799.47</ele>
      </trkpt>
      <trkpt lat="35.43039" lon="-82.68178">
        <ele>799.76</ele>
      </trkpt>
      <trkpt lat="35.43017" lon="-82.68166">
        <ele>799.98</ele>
      </trkpt>
      <trkpt lat="35.42996" lon="-82.68159">
        <ele>798.79</ele>
      </trkpt>
      <trkpt lat="35.42976" lon="-82.68138">
        <ele>797.01</ele>
      </trkpt>
      <trkpt lat="35.42964" lon="-82.68133">
        <ele>795.82</ele>
      </trkpt>
      <trkpt lat="35.42956" lon="-82.6812">
        <ele>796.3</ele>
      </trkpt>
      <trkpt lat="35.42923" lon="-82.68102">
        <ele>795.98</ele>
      </trkpt>
      <trkpt lat="35.42915" lon="-82.68076">
        <ele>797.82</ele>
      </trkpt>
      <trkpt lat="35.42896" lon="-82.68072">
        <ele>795.99</ele>
      </trkpt>
      <trkpt lat="35.42874" lon="-82.68059">
        <ele>795.89</ele>
      </trkpt>
      <trkpt lat="35.42858" lon="-82.68049">
        <ele>796.79</ele>
      </trkpt>
      <trkpt lat="35.4284" lon="-82.68044">
        <ele>795.96</ele>
      </trkpt>
      <trkpt lat="35.42833" lon="-82.6804">
        <ele>797.34</ele>
      </trkpt>
      <trkpt lat="35.42814" lon="-82.6804">
        <ele>793.3</ele>
      </trkpt>
      <trkpt lat="35.42807" lon="-82.68025">
        <ele>797.26</ele>
      </trkpt>
      <trkpt lat="35.42801" lon="-82.68017">
        <ele>798.02</ele>
      </trkpt>
      <trkpt lat="35.42772" lon="-82.67991">
        <ele>794.97</ele>
      </trkpt>
      <trkpt lat="35.42746" lon="-82.67961">
        <ele>793.99</ele>
      </trkpt>
      <trkpt lat="35.42736" lon="-82.67957">
        <ele>794.95</ele>
      </trkpt>
      <trkpt lat="35.4273" lon="-82.67958">
        <ele>795.62</ele>
      </trkpt>
      <trkpt lat="35.4271" lon="-82.6797">
        <ele>798.0</ele>
      </trkpt>
      <trkpt lat="35.42686" lon="-82.67979">
        <ele>802.08</ele>
      </trkpt>
      <trkpt lat="35.4267" lon="-82.67982">
        <ele>806.64</ele>
      </trkpt>
      <trkpt lat="35.42647" lon="-82.67984">
        <ele>808.04</ele>
      </trkpt>
      <trkpt lat="35.42627" lon="-82.6798">
        <ele>810.2</ele>
      </trkpt>
      <trkpt lat="35.42597" lon="-82.67958">
        <ele>813.62</ele>
      </trkpt>
      <trkpt lat="35.42566" lon="-82.67943">
        <ele>816.46</ele>
      </trkpt>
      <trkpt lat="35.42561" lon="-82.67938">
        <ele>816.16</ele>
      </trkpt>
      <trkpt lat="35.42547" lon="-82.67916">
        <ele>816.45</ele>
      </trkpt>
      <trkpt lat="35.4253" lon="-82.67886">
        <ele>819.34</ele>
      </trkpt>
      <trkpt lat="35.42525" lon="-82.67882">
        <ele>819.11</ele>
      </trkpt>
      <trkpt lat="35.42517" lon="-82.6788">
        <ele>819.21</ele>
      </trkpt>
      <trkpt lat="35.42477" lon="-82.679">
        <ele>827.97</ele>
      </trkpt>
      <trkpt lat="35.42461" lon="-82.67902">
        <ele>829.13</ele>
      </trkpt>
      <trkpt lat="35.42426" lon="-82.67902">
        <ele>829.92</ele>
      </trkpt>
      <trkpt lat="35.42362" lon="-82.67923">
        <ele>832.98</ele>
      </trkpt>
      <trkpt lat="35.42329" lon="-82.67926">
        <ele>835.5</ele>
      </trkpt>
      <trkpt lat="35.42317" lon="-82.67924">
        <ele>833.49</ele>
      </trkpt>
      <trkpt lat="35.42287" lon="-82.67915">
        <ele>829.54</ele>
      </trkpt>
      <trkpt lat="35.4228" lon="-82.67916">
        <ele>828.46</ele>
      </trkpt>
      <trkpt lat="35.42257" lon="-82.67926">
        <ele>831.94</ele>
      </trkpt>
      <trkpt lat="35.42245" lon="-82.67934">
        <ele>832.73</ele>
      </trkpt>
      <trkpt lat="35.42234" lon="-82.6794">
        <ele>834.62</ele>
      </trkpt>
      <trkpt lat="35.42215" lon="-82.67946">
        <ele>835.44</ele>
      </trkpt>
      <trkpt lat="35.42208" lon="-82.67945">
        <ele>835.91</ele>
      </trkpt>
      <trkpt lat="35.42199" lon="-82.67941">
        <ele>835.68</ele>
      </trkpt>
      <trkpt lat="35.42195" lon="-82.67935">
        <ele>835.12</ele>
      </trkpt>
      <trkpt lat="35.42195" lon="-82.67935">
        <ele>835.12</ele>
      </trkpt>
      <trkpt lat="35.42195" lon="-82.67935">
        <ele>835.12</ele>
      </trkpt>
      <trkpt lat="35.42192" lon="-82.67929">
        <ele>834.21</ele>
      </trkpt>
      <trkpt lat="35.42188" lon="-82.67915">
        <ele>832.22</ele>
      </trkpt>
      <trkpt lat="35.42181" lon="-82.67877">
        <ele>828.57</ele>
      </trkpt>
      <trkpt lat="35.4217" lon="-82.67849">
        <ele>826.75</ele>
      </trkpt>
      <trkpt lat="35.42162" lon="-82.67817">
        <ele>824.61</ele>
      </trkpt>
      <trkpt lat="35.42162" lon="-82.67806">
        <ele>823.54</ele>
      </trkpt>
      <trkpt lat="35.42163" lon="-82.67796">
        <ele>821.73</ele>
      </trkpt>
      <trkpt lat="35.42168" lon="-82.67785">
        <ele>819.82</ele>
      </trkpt>
      <trkpt lat="35.42179" lon="-82.67767">
        <ele>816.39</ele>
      </trkpt>
      <trkpt lat="35.42181" lon="-82.67759">
        <ele>815.66</ele>
      </trkpt>
      <trkpt lat="35.4218" lon="-82.6775">
        <ele>815.76</ele>
      </trkpt>
      <trkpt lat="35.42171" lon="-82.67737">
        <ele>812.09</ele>
      </trkpt>
      <trkpt lat="35.42166" lon="-82.67732">
        <ele>810.73</ele>
      </trkpt>
      <trkpt lat="35.42157" lon="-82.67728">
        <ele>807.58</ele>
      </trkpt>
      <trkpt lat="35.42146" lon="-82.67725">
        <ele>806.07</ele>
      </trkpt>
      <trkpt lat="35.42113" lon="-82.67724">
        <ele>803.2</ele>
      </trkpt>
      <trkpt lat="35.42107" lon="-82.67722">
        <ele>802.52</ele>
      </trkpt>
      <trkpt lat="35.42101" lon="-82.67717">
        <ele>801.3</ele>
      </trkpt>
    </trkseg>
  </trk>
</gpx>
